icao,iata,synop,name,state,country,lat,lon,elev,priority,srcid
TJPS,,,Ponce/Mercedita,PR,US,18.02,-66.57,9,6,tjps
,FBY,74440,Fairbury Profiler,NE,US,40.1,-97.34,433,8,p#8
,,,999140,,,35.7,139.3,139,7,999140
KBML,BML,72616,Berlin Muni,NH,US,44.59,-71.18,345,7,kbml
KICT,ICT,72450,Wichita,KS,US,37.66,-97.43,407,3,kict
,,,mac,,,61.32,-142.59,967,7,mac
KDTW,DTW,72537,Detroit Metro,MI,US,42.23,-83.33,195,1,kdtw
KLMO,,,Longmont/Table Mountain,CO,US,40.13,-105.24,1689,8,tbl
KSLE,SLE,72694,Salem,OR,US,44.93,-123.02,59,2,ksle
KFLO,FLO,,Florence Rgnl,SC,US,34.19,-79.72,44,6,kflo
,,,176060,,,35.15,33.28,224,7,176060
MMMT,MTT,,Minatitlan,,MX,18.1,-94.58,40,6,mmmt
KPAH,PAH,72435,Paducah,KY,US,37.07,-88.77,119,3,kpah
KGRR,GRR,72635,Grand Rapids Intl,MI,US,42.89,-85.52,237,3,kgrr
KTRI,TRI,,Tri-City/Bristol,TN,US,36.48,-82.4,474,4,ktri
,,,cln,,,31.71,-89.41,55,7,cln
,,74641,Vici,OK,US,36.0666666667,-99.3333333333,622,8,746410
KDNR,DNR,72469,Denver/Stapleton,CO,US,39.75,-104.87,1611,7,den
K9B6,9B6,,Sewel Ridge,ME,US,43.0,-68.0,150,8,9b6
MMSD,SJD,,San Jose Del Cabo,,MX,23.15,-109.7,109,6,mmsd
KPSN,PSN,,Palestine Muni,TX,US,31.78,-95.71,119,7,p#u
KGUP,GUP,,Gallup,NM,US,35.53,-108.78,1971,6,kgup
CYTS,YTS,71739,Timmins,ON,CA,48.58,-81.38,295,6,cyts
MMCS,CJS,,Cuidad Juarez Intl,,MX,31.63,-106.43,1171,6,mmcs
KBFL,BFL,72384,Bakersfield,CA,US,35.43,-119.05,151,6,kbfl
,,,hay,,,65.2,-161.15,92,7,hay
,,,000261,,,43.78,-87.85,233,7,000261
KIGM,IGM,72370,Kingman,AZ,US,35.28,-113.95,1032,7,igm
,,,044017,,,40.7,-72.1,0,7,044017
KSTP,STP,,St. Paul,MN,US,44.94,-93.05,219,1,kstp
MPSA,,78795,Santiago,,PA,8.06666666667,-80.9333333333,83,7,mpsa
ESGJ,,2550,Jonkoping Airport,,SE,57.7666666667,14.0666666667,232,6,702550
PAKW,AKW,,Klawock,AK,US,55.562,-133.085,15,7,pakw
KSMN,SMN,72686,Salmon,ID,US,45.12,-113.88,1233,6,smn
CYZT,YZT,71109,Port Hardy,BC,CA,50.69,-127.37,22,0,cyzt
,,,pls,,,67.75,-149.0,1130,7,pls
CYOW,YOW,71628,Ottawa Intl,ON,CA,45.33,-75.67,114,2,cyow
,,,kkl,,,40.2,-92.6,272,7,kkl
,CNW,74550,Conway Profiler,MO,US,37.52,-92.7,390,8,p#h
KBCE,BCE,,Bryce Canyon,UT,US,37.71,-112.16,2312,6,kbce
CYZV,YZV,71811,Sept Iles,QB,CA,50.23,-66.27,55,5,cyzv
,,,000279,,,40.72,-122.43,459,7,000279
CYUL,YUL,71627,Montreal/Dorval,QB,CA,45.47,-73.75,36,0,cyul
PAPG,PSG,70386,Petersburg,AK,US,56.82,-132.945,15,6,papg
,,,000295,,,38.51,-122.96,30,7,000295
KACK,ACK,72506,Nantucket Memorial,MA,US,41.26,-70.07,16,2,kack
KEND,END,,Enid/Vance AFB,OK,US,36.34,-97.9,398,4,end
KVBG,VBG,72393,Vandenberg AFB,CA,US,34.75,-120.57,112,3,vbg
KPLN,PLN,,Pellston,MI,US,45.58,-84.8,217,6,kpln
,,,grun,,,37.27,-82.1,320,7,grun
KBTM,BTM,,Butte/Silver Bow,MT,US,45.96,-112.5,1688,6,kbtm
KY22,Y22,72669,Lemmon,SD,US,45.9166666667,-102.166666667,781,7,ky22
,OKO,74769,Okolona Profiler,MS,US,34.09,-88.86,125,8,p#x
KY26,Y26,,Mobridge,SD,US,45.54,-100.43,508,8,ky26
,,,kel,,,67.95,-162.31,69,7,kel
MMGL,GDL,,Guadalajara/Don Miguel,,MX,20.52,-103.32,1528,5,mmgl
KROA,ROA,72411,Roanoke Muni,VA,US,37.33,-79.97,362,3,kroa
LOWW,,11036,Vienna/Schwechat,,AT,48.1166666667,16.5666666667,190,6,110360
KZZV,ZZV,,Zanesville,OH,US,39.96,-81.9,268,6,kzzv
KFFC,FFC,72215,Peachtree City,GA,US,33.35,-84.56,262,1,ffc
,,,c03,,,37.8,-97.01,390,7,c03
,,,000955,,,39.2,-125.5,0,7,000955
SPRU,,84501,Trujillo/Martine,,PE,-8.08333333333,-79.1166666667,30,7,845010
KPIB,PIB,,Pine Belt Rgnl,MS,US,31.47,-89.33,91,6,kpib
KLND,LND,72576,Lander,WY,US,42.83,-108.73,1694,6,klnd
,VCI,74640,Vici Profiler,OK,US,36.07,-99.22,648,8,p#n
KTUL,TUL,72356,Tulsa Intl,OK,US,36.21,-95.9,207,3,tul
EPWR,,12424,Wroclaw/Strachow,,PL,51.1,16.8666666667,121,6,124240
KMOX,MOX,,Morris Muni,MN,US,45.5,-95.9,335,7,mrs
,,,ls2,,,47.56,-86.55,183,7,ls2
MYGW,,78061,West End,Grand Bahama,BS,26.7,-78.966,4,7,mygw
KPNS,PNS,72222,Pensacola,FL,US,30.47,-87.2,38,6,kpns
KVCT,VCT,72255,Victoria Rgnl,TX,US,28.86,-96.92,31,6,kvct
,,,000959,,,30.9,-121.5,0,7,000959
CYQD,YQD,71867,The Pas,MB,CA,53.98,-101.1,271,5,cyqd
KRDU,RDU,72306,Raleigh-Durham,NC,US,35.88,-78.78,130,2,723069
KOSH,OSH,,Oshkosh,WI,US,44.01,-88.57,248,6,kosh
KLDM,LDM,,Ludington,MI,US,43.96,-86.41,197,7,kldm
MMTC,TRC,76382,Torreon,,MX,25.53,-103.45,1124,5,mmtc
BIKF,,4018,Keflavik,,IS,63.9833333333,-22.6,54,6,004018
KGSP,GSP,72312,Greenville-Spartanburg,SC,US,34.91,-82.22,287,3,kgsp
,,,000729,,,42.55,-119.66,1719,7,000729
DRRN,,61052,Niamey,,NE,13.4666666667,2.16666666667,227,6,610520
KBOS,BOS,72509,Boston/Logan Intl,MA,US,42.38,-71.03,6,0,kbos
KMEI,MEI,72234,Meridian,MS,US,32.34,-88.75,89,6,kmei
MDST,,78460,Santiago Intl,,DO,19.47,-70.7,184,6,mdst
,,,000290,,,38.51,-123.22,70,7,000290
KSTS,STS,,Santa Rosa,CA,US,38.51,-122.81,39,6,ksts
,,,000751,,,29.21,-99.74,287,7,000751
,,,999040,,,35.17,-79.5,74,7,999040
KENL,ENL,,Centralia,IL,US,38.52,-89.08,163,7,enl
KRDU,RDU,72306,Raleigh-Durham,NC,US,35.88,-78.78,130,2,723065
SLTR,,85154,Trinidad/Jorge H,,BO,-14.8333333333,-64.9166666667,157,6,851540
KCOE,COE,,Coeur d'Alene,ID,US,47.78,-116.82,707,4,kcoe
OERK,,40437,Riyadh/King Khalid,,SA,24.93,46.72,612,6,404370
KUNV,UNV,,State College,PA,US,40.86,-77.83,378,3,kunv
MMZO,ZLO,,Manzanillo Intl,,MX,19.15,-104.57,8,5,mmzo
LFJL,,7093,Metz-Nancy-Lorra,,FR,48.9666666667,6.25,264,7,070930
,,,glry,,,37.07,-121.12,98,7,glry
KFAY,FAY,,Fayetteville Rgnl,NC,US,34.99,-78.88,55,4,kfay
,,,c27,,,38.0,-80.0,881,7,c27
PAOR,ORT,70291,Northway,AK,US,62.97,-141.94,523,6,paor
,,,b#h,,,39.2,-124.0,0,7,b#h
KCIN,CIN,,Carroll,IA,US,42.04,-94.79,379,8,crl
CWQG,WQG,71151,Valcartier,QB,CA,46.91,-71.5,168,8,cwqg
CYMX,YMX,71626,Montreal/Mirabel,QB,CA,45.69,-74.04,82,1,cymx
K6R0,6R0,,Slidell,LA,US,30.33,-89.82,8,8,6ro
KCQV,CQV,,Colville Muni,WA,US,48.55,-117.89,572,7,cqv
CYTH,YTH,71079,Thompson,MB,CA,55.8,-97.87,218,6,cyth
TJSJ,SJU,78526,San Juan Intl,PR,US,18.43,-66.0,21,5,tjsj
KHUF,HUF,72437,Terre Haute,IN,US,39.46,-87.3,179,6,khuf
,,,000737,,,40.47,-81.42,273,7,000737
KFLP,FLP,,Flippin,AR,US,36.29,-92.59,219,7,flp
KAIA,AIA,,Alliance Muni,NE,US,42.05,-102.8,1196,7,725635
,,,999310,,,4.8,-52.4,105,7,999310
YPDN,,94120,Darwin,NT,AU,-12.4,130.87,30,6,941200
KHBR,HBR,,Hobart,OK,US,35.01,-99.05,473,6,khbr
KMTH,MTH,,Marathon,FL,US,24.726,-81.051,2,7,722016
,,,Santo Domingo Este,,DO,18.47,-69.88,14,8,dsd
KPIR,PIR,,Pierre,SD,US,44.39,-100.28,526,3,kpir
,,,c30,,,37.5,-96.0,323,7,c30
,,,000265,,,31.38,-103.51,796,7,000265
,,,3j2,,,31.0,-79.0,0,7,3j2
,,,liso,,,41.1,-72.89,0,7,liso
,,,723070,,,36.82,-72.1,7,7,723070
,,,443850,,,43.2,107.17,914,7,443850
,,,000732,,,41.43,-121.46,1603,7,000732
KBDL,BDL,72508,Windsor Locks,CT,US,41.94,-72.68,60,6,kbdl
KLAF,LAF,,Lafayette/Purdue,IN,US,40.43,-86.93,182,4,klaf
,,,000255,,,46.7,-48.0,0,7,000255
,,,915005,,,5.3,132.2,0,7,915005
SBKP,,83721,Campinas/Viracop,,BR,-23.0,-47.1166666667,661,6,837210
K4HV,4HV,72473,Hanksville,UT,US,38.38,-110.72,1314,7,4hv
TAPA,,78862,Coolidge Airport,,AG,17.12,-61.78,14,6,tapa
PACD,CDB,70316,Cold Bay,AK,US,55.21,-162.72,30,5,pacd
,,,c12,,,33.7,-97.4,343,7,c12
TNCE,,78873,Fdr/Oranjes,,AN,17.4666666667,-62.9666666667,39,7,tnce
,,,000760,,,40.73,-122.94,681,7,000760
CYZX,YZX,71397,Greenwood,NS,CA,44.98,-64.92,28,6,713970
KNKT,NKT,72309,Cherry Pt. MCAS,NC,US,34.86,-76.88,9,3,knkt
KEWR,EWR,72502,Newark Intl,NJ,US,40.71,-74.17,7,2,kewr
SKSP,,80001,San Andres Islan,,CO,12.5666666667,-81.7166666667,-2,6,sksp
KPUC,PUC,72470,Price,UT,US,39.62,-110.75,2091,7,724700
,,,g#5,,,28.4,-98.7,98,7,g#5
KTUL,TUL,72356,Tulsa Intl,OK,US,36.21,-95.9,207,3,ktul
KMHV,MHV,,Mojave,CA,US,35.07,-118.15,849,7,722593
HSYA,,62940,Yambio,,SD,4.56666666667,28.3833333333,649,7,562940
EDDK,,10513,Koln/Bonn,,DE,50.87,7.17,99,6,105130
,WSM,74629,White Sands Profiler,NM,US,32.41,-106.35,1224,8,p#l
,,,c20,,,49.5,-108.0,946,7,c20
WMKK,KUL,48647,Kuala Lumpur,,MY,2.75,101.716666667,22,6,486470
KPVD,PVD,72507,Providence,RI,US,41.73,-71.43,16,3,kpvd
TJMZ,,,Mayaguez/Eugenio,PR,US,18.27,-67.15,9,6,tjmz
PATA,TAL,70178,Tanana,AK,US,65.17,-152.1,67,6,pata
PFYU,FYU,,Fort Yukon,AK,US,66.57,-145.27,131,7,pfyu
TXKF,,78016,Bermuda NAS,,BM,32.37,-64.68,6,1,txkf
CYMO,YMO,71836,Moosonee,ON,CA,51.289,-80.614,10,5,cymo
KTOP,TOP,72456,Topeka/Billard Muni,KS,US,39.08,-95.62,268,3,ktop
,,,000210,,,60.78,-148.72,30,7,000210
,,,bh2,,,44.79,-104.73,1215,7,bh2
,,,999230,,,-14.3,-170.7,3,7,999230
MMSP,SLP,76539,San Luis Potosi,,MX,22.15,-100.98,1903,6,mmsp
,,,000271,,,37.51,-120.04,687,7,000271
CWLO,WLO,71853,Shilo,MB,CA,49.79,-99.65,373,7,cwlo
,,,nck,,,60.03,-151.66,38,7,nck
KHGR,HGR,,Hagerstown,MD,US,39.71,-77.73,224,7,hgr
KABE,ABE,72517,Allentown-Bethlehem,PA,US,40.66,-75.43,114,6,kabe
K87Q,87Q,72390,Punta Piedras,CA,US,35.66,-121.28,11,7,ppb
,,,000364,,,28.71,-95.96,2,7,000364
,,,003957,,,52.25,-6.33,25,7,003957
PAEG,EAA,,Eagle,AK,US,64.78,-141.15,268,7,paeg
,,,915024,,,7.3,168.8,0,7,915024
KGJT,GJT,72476,Grand Junction,CO,US,39.12,-108.53,1475,2,kgjt
KFSI,FSI,72355,Fort Sill,OK,US,34.66,-98.4,362,7,fsi
KATL,ATL,72219,Atlanta Intl,GA,US,33.66,-84.42,296,0,katl
KRAP,RAP,,Rapid City,SD,US,44.056,-103.054,965,2,krap
KTYS,TYS,72326,Knoxville Muni,TN,US,35.81,-83.98,302,4,ktys
KCLT,CLT,72314,Charlotte/Douglas Intl,NC,US,35.21,-80.94,220,4,kclt
TDCF,,78906,Canefield,,DM,15.3333333333,-61.4,5,7,tdcf
KBVY,BVY,,Beverly Muni,MA,US,42.58,-70.92,28,7,kbvy
,,,g#b,,,18.3,-94.2,0,7,g#b
CYQY,YQY,71707,Sydney,NS,CA,46.18,-60.05,62,6,cyqy
,,,999130,,,-7.9,-14.4,86,7,999130
KEET,EET,72230,Alabaster,AL,US,33.1666666667,-86.7666666667,197,8,bmx
KCIU,CIU,,Chippewa,MI,US,46.26,-84.47,244,7,kciu
LRSM,,15010,Satu Mare,,RO,47.7,22.8833333333,124,7,915010
ORMM,,40689,Basrah/Magal,,IQ,30.5666666667,47.6666666667,2,6,406890
KLVM,LVM,,Livingston,MT,US,45.71,-110.43,1418,6,lvm
KPIH,PIH,72578,Pocatello Muni,ID,US,42.93,-112.6,1359,3,kpih
KBVR,BVR,,Beaver Rim,WY,US,42.58,-108.28,2072,9,bvr
KCDS,CDS,,Childress Muni,TX,US,34.4275,-100.284,594,3,kcds
GCLP,,60030,Las Palmas,,ES,27.93,-15.38,25,6,600300
KPAE,PAE,,Everett,WA,US,47.91,-122.28,180,6,kpae
,,,000291,,,38.78,-122.99,83,7,000291
KMLD,MLD,,Malad City,ID,US,42.18,-112.32,1373,6,mld
,,,999240,,,-51.6,-69.3,20,7,999240
KOAK,OAK,72493,Oakland Intl,CA,US,37.7,-122.22,26,1,koak
KFWD,FWD,72249,Fort Worth,TX,US,32.8166666667,-97.2833333333,196,8,fwd
UTSB,BHK,38683,Bukhara,UZ,UZ,39.72,64.62,226,6,bhk
,,,999050,,,48.83,-101.67,508,7,999050
OERY,,40438,Riyadh,,SA,24.72,46.72,612,6,404380
KSEA,SEA,72793,Seattle-Tacoma Intl,WA,US,47.44,-122.31,136,0,ksea
,,,lm2,,,42.67,-87.02,177,7,lm2
,,,000362,,,28.39,-110.29,214,7,000362
KCNU,CNU,,Chanute,KS,US,37.68,-95.48,297,6,kcnu
,,,000707,,,32.07,-82.9,66,7,000707
KAUS,AUS,72254,Austin/Bergstrom Intl,TX,US,30.183,-97.68,166,3,kaus
KOKC,OKC,72353,Oklahoma City/Will Rogers,OK,US,35.41,-97.6,390,2,kokc
KBUF,BUF,72528,Buffalo Intl,NY,US,42.94,-78.73,211,0,kbuf
CYSM,YSM,71934,Fort Smith,NT,CA,60.01,-112.0,203,5,cysm
KOUN,OUN,72357,Norman,OK,US,35.246,-97.472,357,3,oun
SKPE,,80210,Pereira/Matecana,,CO,4.81666666667,-75.7333333333,1346,7,skpe
KABI,ABI,72266,Abilene,TX,US,32.43,-99.68,548,4,kabi
KSGF,SGF,72440,Springfield Muni,MO,US,37.23,-93.4,390,5,ksgf
KALW,ALW,72788,Walla Walla Regnl,WA,US,46.09,-118.29,363,6,kalw
WSAT,,48687,Singapore/Tengah,,SG,1.36666666667,103.716666667,12,7,486870
MMGM,GYM,,Guaymas Intl,,MX,27.97,-110.93,20,5,mmgm
,,,000721,,,41.65,-70.52,40,7,000721
,,,000311,,,38.5,-129.0,0,7,000311
KP38,P38,72487,Caliente,NV,US,37.62,-114.52,1333,8,kp38
KHMN,HMN,74732,Holloman AFB,NM,US,32.86,-106.1,1248,4,hmn
,,,gmx1,,,29.2,-87.25,0,7,gmx1
DIAP,,65578,Abidjan/Port Bou,,CI,5.25,-3.91666666667,8,6,655780
SBAA,,82861,Conceicao Aragua,,BR,-8.35,-49.3,199,7,828610
,,,000757,,,47.76,-120.65,591,7,000757
,,,829750,,,-9.07,-44.37,332,7,829750
,,,000720,,,34.61,-79.06,38,7,000720
CYQB,YQB,71714,Quebec,QB,CA,46.8,-71.4,73,2,717140
LSMP,,6610,Payerne,,CH,46.8166666667,6.91666666667,491,7,006610
MGPB,,78637,Puerto Barrios,,GT,15.7166666667,-88.5833333333,10,6,mgpb
,,,col1,,,45.68,-121.27,61,7,col1
,,,000351,,,35.97,-118.54,1785,7,000351
KTXK,TXK,,Texarkana Muni,AR,US,33.46,-94.0,111,6,ktxk
KLAS,LAS,72386,Las Vegas/McCarran,NV,US,36.09,-115.17,636,2,klas
CYWO,YWO,71496,Lupin,NU,CA,65.77,-111.25,494,6,cywo
KU24,U24,72479,Delta,UT,US,39.34,-112.59,1414,7,u24
,,,999090,,,-27.33,-59.5,53,7,999090
KMYR,MYR,74791,Myrtle Beach AFB,SC,US,33.69,-78.93,8,6,kmyr
KCHS,CHS,72208,Charleston AFB,SC,US,32.91,-80.03,13,1,kchs
,,,b#1,,,34.9,-73.0,0,7,b#1
KSNY,SNY,72561,Sidney Muni,NE,US,41.11,-102.98,1307,6,sny
,,,999350,,,44.1,-103.1,1000,7,999350
,,17062,Istanbul/Goztepe,,TR,40.9666666667,29.0833333333,33,8,170620
CYDF,YDF,71809,Deer Lake,NF,CA,49.23,-57.4,22,6,cydf
KBLH,BLH,,Blythe,CA,US,33.62,-114.72,119,6,kblh
,,,098009,,,38.33,-96.19,453,7,098009
KLOZ,LOZ,72329,London,KY,US,37.09,-84.04,362,6,kloz
MHTE,,78706,Tela,,HN,15.7833333333,-87.4833333333,3,6,mhte
KBJI,BJI,72755,Bemidji Muni,MN,US,47.51,-94.93,420,6,kbji
PAUM,UMT,70162,Umiat,AK,US,69.37,-152.13,104,7,paum
KDPG,DPG,74003,Dugway Proving Ground,UT,US,40.21,-112.93,1326,3,dpg
,,,s#9,,,28.5,-92.3,0,7,s#9
KCKL,CKL,,Centreville,AL,US,32.91,-87.25,140,8,kckl
K92Q,92Q,,Bodega Bay,CA,US,38.32,-123.07,12,8,bod
,LTH,74551,Lathrop Profiler,MO,US,39.58,-94.19,297,8,p#i
KEAT,EAT,,Wenatchee,WA,US,47.41,-120.2,377,6,keat
,,,g#3,,,27.7,-102.5,1247,7,g#3
KEKO,EKO,,Elko,NV,US,40.84,-115.78,1547,3,keko
KLNK,LNK,72551,Lincoln Muni,NE,US,40.86,-96.75,364,3,klnk
MMTO,TLC,,Toluca/Jose Maria,,MX,19.35,-99.57,2576,6,mmto
,,,ls1,,,48.06,-87.78,183,7,ls1
,,,999120,,,61.2,-149.8,65,7,999120
KBED,BED,74490,Bedford/Laurence G Hanscom,MA,US,42.47,-71.29,50,2,kbed
KBFM,BFM,,Mobile/Downtown,AL,US,30.63,-88.07,8,3,722235
RPLL,,98429,Ninoy Aquino Int,,PH,14.5166666667,121.0,21,6,984290
,,,000257,,,42.75,-86.1,210,7,000257
KDFW,DFW,72259,Dallas/Ft Worth,TX,US,32.91,-97.03,174,0,kdfw
MYNN,,78073,Nassau Intl,,BS,25.05,-77.47,3,3,mynn
MUGM,,78367,Guantanamo Bay,CU,CU,19.906,-75.207,17,6,mugm
CYZF,YZF,71936,Yellow Knife,NT,CA,62.51,-114.5,206,6,cyzf
,,,915025,,,5.9,169.6,0,7,915025
KAJO,AJO,,Corona,CA,US,33.898,-117.602,163,8,ajo
,,,b#s,,,36.6,-74.8,0,7,b#s
KLAR,LAR,,Laramie,WY,US,41.33,-105.68,2216,6,klar
KITH,ITH,,Ithaca,NY,US,42.48,-76.47,335,6,kith
CYXH,YXH,71872,Medicine Hat,AB,CA,50.03,-110.72,716,6,cyxh
MPTO,,78792,Tocumen,,PA,9.05,-79.3666666667,45,6,mpto
KLGA,LGA,72503,New York/La Guardia,NY,US,40.78,-73.88,11,1,klga
,,,ils,,,28.88,-118.3,6,7,ils
KPLB,PLB,,Plattsburgh,NY,US,44.6833333333,-73.5333333333,106,6,plb
KMLT,MLT,,Millinocket,ME,US,45.66,-68.68,123,6,kmlt
,,,999400,,,34.95,69.27,1491,7,999400
EQCB,,99903,Kandahar,,AF,31.5166666667,65.8666666667,1010,7,999030
KGYY,GYY,,Gary,IN,US,41.62,-87.42,180,4,kgyy
KPDK,PDK,,Atlanta/Dekalb-Peachtree,GA,US,33.88,-84.3,302,7,kpdk
,,,999340,,,32.2,-110.9,824,7,999340
PAUN,UNK,70207,Unalakleet,AK,US,63.89,-160.81,6,6,paun
TISX,,78547,Christiansted/Alexander,,VI,17.7,-64.8,19,6,tisx
CYYQ,YYQ,71913,Churchill,MB,CA,58.73,-94.07,29,5,cyyq
KGTB,GTB,74370,Fort Drum,NY,US,44.05,-75.74,207,6,gtb
,,,000940,,,39.3,-72.0,0,7,000940
PACZ,CZF,70212,Cape Romanzoff,AK,US,61.79,-166.04,146,6,pacz
KDDC,DDC,72451,Dodge City,KS,US,37.78,-99.97,789,0,kddc
PHNA,NAX,,Barbers Pt NAS,HI,US,21.3166666667,-158.066666667,15,8,phna
,,,000366,,,24.7,-80.51,1,7,000366
,,,maz,,,18.17,-67.15,0,7,maz
,,,000268,,,31.18,-99.32,546,7,000268
KORE,ORE,,Orange,MA,US,42.58,-72.28,164,7,kore
KPOU,POU,,Poughkeepsie,NY,US,41.64,-73.88,46,4,kpou
,,,u#2,,,70.97,-178.53,3,7,u#2
KOTM,OTM,,Ottumwa,IA,US,41.11,-92.45,256,6,kotm
,,,b#9,,,27.0,-96.5,0,7,b#9
KLGU,LGU,,Logan-Cache,UT,US,41.79,-111.85,1355,6,klgu
,,,000233,,,35.33,-77.6,29,7,000233
,,,bh4,,,43.35,-104.69,1340,7,bh4
KSGU,SGU,,Saint George,UT,US,37.09,-113.6,896,6,ksgu
EHAM,,6240,Amsterdam/Schiphol,,NL,52.3166666667,4.78333333333,9,6,062400
RJTT,,47671,Tokyo Intl,,JP,35.55,139.78,8,6,476710
KLZK,LZK,72340,North Little Rock,AR,US,34.84,-92.25,173,8,klzk
,,,431500,,,17.72,83.3,66,7,431500
,,,a#9,,,52.0,-162.0,0,7,a#9
KPUB,PUB,72464,Pueblo,CO,US,38.29,-104.52,1420,3,kpub
,,,000363,,,26.57,-98.82,98,7,000363
,,,000714,,,33.62,-103.02,1204,7,000714
,,,000853,,,45.56,-67.43,134,7,000853
OAJL,,40954,Jalalabad,,AF,34.4166666667,70.4666666667,580,7,409540
KMDT,MDT,,Harrisburg-Middletown,PA,US,40.21,-76.77,95,6,kmdt
MSLP,,78666,El Salvador Intl,,SV,13.4333333333,-89.05,25,5,mslp
KMSO,MSO,72773,Missoula,MT,US,46.93,-114.08,975,3,kmso
,,,lh1,,,45.35,-82.84,177,7,lh1
SAAR,,87480,Rosario Airport,,AR,-32.9166666667,-60.7666666667,25,6,874800
KNTD,NTD,72391,Pt. Mugu NAS,CA,US,34.12,-119.12,4,6,ntd
,,,000212,,,36.2,-81.65,960,7,000212
,,,c06,,,37.9,-95.2,337,7,c06
KGRI,GRI,72552,Grand Island,NE,US,40.98,-98.32,561,6,kgri
,,10866,Munich-Riem Eddm,,DE,48.1166666667,11.6833333333,529,7,108660
MKJP,,78397,Kingston,,JM,17.93,-76.78,3,5,mkjp
KTCC,TCC,,Tucumcari,NM,US,35.19,-103.6,1235,6,ktcc
PAHO,HOM,70341,Homer Muni,AK,US,59.64,-151.5,28,6,paho
KRSL,RSL,,Russell Muni,KS,US,38.87,-98.81,567,6,krsl
,,,sww,,,56.97,-126.95,1463,8,sww
KANB,ANB,,Anniston,AL,US,33.59,-85.85,183,6,kanb
KCTY,CTY,72212,Cross City,FL,US,29.62,-83.1,13,6,cty
KADM,ADM,,Ardmore,OK,US,34.303,-97.02,232,4,adm
CYBU,YBU,71130,Nipawin,SK,CA,53.34,-104.0,374,7,cybu
,BLM,74662,Bloomfield Profiler,MO,US,36.88,-89.97,130,8,p#r
KCGX,CGX,,Chicago/Meigs,IL,US,41.88,-87.62,181,7,kcgx
KMMU,MMU,,Morristown Muni,NJ,US,40.799,-74.415,57,7,kmmu
KDEN,DEN,72565,Denver Intl,CO,US,39.8466,-104.656,1640,0,kden
KHIO,HIO,,Hillsboro,OR,US,45.54,-122.95,68,6,khio
MUVT,,78357,Las Tumas,,CU,20.95,-76.95,106,7,muvt
KHYS,HYS,,Hays,KS,US,38.86,-99.27,609,4,khys
,,13275,Beograd Kosutnja,,CS,44.7833333333,20.5333333333,243,7,132750
,,,915007,,,10.0,139.8,0,7,915007
PANT,ANN,70398,Annette Island,AK,US,55.04,-131.57,36,5,pant
KPNE,PNE,,N Philadelphia,PA,US,40.09,-75.02,28,4,kpne
MPCH,,,Captain Manuel N,,PA,9.45,-82.5166666667,6,7,mpch
KMLI,MLI,72544,Moline/Quad City,IL,US,41.46,-90.52,184,6,kmli
TJBQ,,78514,Aguadilla/Borinquen,PR,US,18.5,-67.13,72,6,tjbq
KGCC,GCC,72665,Gillette,WY,US,44.36,-105.53,1320,6,kgcc
KSHR,SHR,72666,Sheridan Co.,WY,US,44.78,-106.97,1202,1,kshr
,,,000346,,,39.15,-122.15,7,7,000346
SPIM,,84628,Lima/Jorge Chave,,PE,-12.0166666667,-77.1166666667,13,6,846280
KSVE,SVE,72584,Susanville,CA,US,40.39,-120.57,1263,7,ksve
,,,pmh,,,38.83,-82.8,186,7,pmh
,,,East Cleveland,OH,US,41.5,-81.6,213,8,cle
,,,c34,,,35.5,-97.0,305,7,c34
,,,000957,,,33.3,-125.0,0,7,000957
RPLC,,98327,Angeles/Pampanga,,PH,15.1666666667,120.583333333,196,7,983270
KBTR,BTR,,Baton Rouge,LA,US,30.54,-91.15,21,4,kbtr
MMCV,CVM,76491,Cuidad Victoria,,MX,23.72,-98.97,238,6,cvm
,,76256,Empalme,,MX,27.95,-110.766666667,12,8,emp
KFAM,FAM,,Farmington Rgnl,MO,US,37.76,-90.43,288,6,kfam
KAGR,AGR,74796,Avon Park,FL,US,27.65,-81.3333333333,20,8,agr
K4BQ,4BQ,72667,Broadus,MT,US,45.44,-105.4,922,9,4bq
KBTL,BTL,,Battle Creek,MI,US,42.3,-85.25,290,6,kbtl
KE28,E28,74733,White Sands Space Harbor,NM,US,32.94,-106.41,1192,8,e28
PABA,BTI,70086,Barter Island,AK,US,70.14,-143.59,2,7,paba
,,,000740,,,39.58,-79.34,894,7,000740
KAOO,AOO,,Altoona,PA,US,40.3,-78.32,455,6,kaoo
CWMW,WMW,71722,Maniwaki,QB,CA,46.39,-75.96,170,8,cwmw
,,,s#4,,,29.5,-123.0,0,7,s#4
KYKM,YKM,72781,Yakima,WA,US,46.56,-120.53,324,3,kykm
KMTJ,MTJ,,Montrose,CO,US,38.51,-107.88,1750,6,kmtj
KTYR,TYR,,Tyler,TX,US,32.35,-95.4,165,4,ktyr
PTTP,,91348,Wso Pohnpei,,FM,6.95,158.25,2,5,913480
MMCL,CUL,76412,Culiacan,,MX,24.82,-107.4,39,6,mmcl
,NDS,74542,Neodesha Profiler,KS,US,37.38,-95.63,255,8,p#f
KLTS,LTS,72352,Altus AFB,OK,US,34.68,-99.27,420,6,723526
,,,000727,,,44.03,-90.08,287,7,000727
,,76805,Acapulco/Las Playas,,MX,16.8333333333,-99.9333333333,3,8,768050
KPQI,PQI,72713,Presque Isle,ME,US,46.69,-68.05,146,6,kpqi
,,,999540,,,23.61,-116.48,0,7,999540
KROW,ROW,72268,Roswell,NM,US,33.31,-104.51,1112,4,krow
KTIW,TIW,,Tacoma Narrows,WA,US,47.27,-122.58,89,7,ktiw
,,,999110,,,38.7,-27.1,52,7,999110
KSAT,SAT,72253,San Antonio Intl,TX,US,29.54,-98.47,243,0,sat
KPHX,PHX,72278,Phoenix/Sky Harbor,AZ,US,33.44,-112.02,336,0,kphx
,,,g#d,,,23.3,-91.6,0,7,g#d
KMKE,MKE,,Milwaukee/Mitchell,WI,US,42.96,-87.9,206,3,kmke
KTCS,TCS,72271,Truth Or Consequences,NM,US,33.23,-107.27,1469,6,ktcs
KDRT,DRT,72261,Del Rio Intl,TX,US,29.38,-100.92,313,2,kdrt
MUGT,,78267,Guantanamo,,CU,20.0833333333,-75.15,8,7,mugt
ZSSS,,58367,Shanghai/Hongqia,,CN,31.2,121.333333333,7,6,583670
KHVL,HVL,74541,Haviland Profiler,KS,US,37.65,-99.09,648,8,p#e
KLCK,LCK,,Columbus/Rickenbacker,OH,US,39.82,-82.93,227,7,724285
KLFT,LFT,,Lafayette Rgnl,LA,US,30.2,-91.99,11,6,klft
MDPC,,78479,Punta Cana,,DO,18.57,-68.37,12,6,mdpc
MUBY,,,Bayamo,,CU,20.4,-76.6166666667,64,7,muby
LEZG,,8160,Zaragoza,,ES,41.67,-1.02,258,6,008160
CWKX,WKX,71222,Dease Lake,BC,CA,58.42,-130.0,793,7,cwkx
,,,g#g,,,23.5,-98.0,77,7,g#g
PKWA,,91366,Kwajalein/Bucholz,MH,US,8.73,167.73,8,6,913660
LOWL,,11010,Linz,,AT,48.2166666667,14.1833333333,313,6,110100
KJCT,JCT,74740,Junction,TX,US,30.5,-99.77,522,6,747400
KLKN,LKN,72582,Elko/WFO,NV,US,40.8666666667,-115.716666667,1608,8,klkn
KAYS,AYS,72213,Waycross,GA,US,31.25,-82.4,46,7,kays
CWTD,,71490,Robertson Lake,NU,CA,65.1,-102.43,211,8,wtd
GMMC,,60155,Casablanca/Anfa,,MA,33.5666666667,-7.66666666667,62,7,601550
MHLC,,78705,La Ceiba/Goloso,,HN,15.75,-86.85,15,6,mhlc
KOMA,OMA,72550,Omaha/Eppley Field,NE,US,41.3,-95.9,312,2,koma
EDDW,,10224,Bremen,,DE,53.0333333333,8.8,5,6,102240
KCAR,CAR,72712,Caribou,ME,US,46.88,-68.02,191,0,kcar
KMIB,MIB,,Minot AFB,ND,US,48.43,-101.35,508,6,kmib
KPHN,PHN,,St. Clair County,MI,US,42.92,-82.53,198,7,kphn
,,,kil,,,60.32,-160.2,467,7,kil
,,,b#c,,,56.3,-148.2,0,7,b#c
YSSY,SYD,94767,Sydney Intl,NW,AU,-33.95,151.18,3,6,947670
,,,915020,,,6.8,159.8,0,7,915020
,,,000355,,,42.47,-73.29,364,7,000355
KPOB,POB,72303,Pope AFB,NC,US,35.18,-79.02,66,6,kpob
,,,082220,,,40.42,-4.25,820,7,082220
,,,c31,,,38.0,-98.4,545,7,c31
KDHT,DHT,,Dalhart,TX,US,36.03,-102.55,1217,6,kdht
KLMN,,74646,Lamont/ARM Facility,OK,US,36.61,-97.49,307,8,g011
KRQB,RQB,,Big Rapids,MI,US,43.72,-85.5,302,7,krqb
PADT,DDT,,Slana Airport,AK,US,62.72,-143.97,687,7,5sz
KSPF,SPF,,Spearfish,SD,US,44.46,-103.85,1210,7,bh3
KBGM,BGM,72515,Binghamton,NY,US,42.23,-75.98,490,3,kbgm
KTRM,TRM,,Thermal,CA,US,33.64,-116.17,-35,6,ktrm
KELD,ELD,,El Dorado,AR,US,33.23,-92.8,81,6,keld
MMCN,CEN,,Ciudad Obregon Intl,MX,MX,27.39,-109.83,43,6,mmcn
,,,915013,,,8.6,149.7,0,7,915013
,,,W Kodiak Island,AK,US,57.27,-154.56,0,7,btl
KRHI,RHI,,Rhinelander/Oneida Co,WI,US,45.63,-89.47,485,6,rhi
CYQK,YQK,71850,Kenora,ON,CA,49.79,-94.37,411,6,cyqk
KHRO,HRO,,Harrison,AR,US,36.28,-93.15,417,6,khro
,,,000213,,,42.59,-87.94,220,7,000213
CYXX,YXX,71108,Abbotsford,BC,CA,49.04,-122.37,58,6,cyxx
UHWW,,31960,Vladivostok,HA,RU,43.12,131.9,184,6,319600
MRCH,,,Chacharita,,CR,9.98333333333,-84.7833333333,2,7,mrch
KAPA,APA,,Denver/Centennial,CO,US,39.5599,-104.848,1775,4,kapa
,,12120,Leba,,PL,54.75,17.5333333333,2,8,912120
SLLP,,85201,La Paz/Jfk Intl,,BO,-16.5166666667,-68.1666666667,4014,6,852010
,,,915008,,,9.8,140.5,0,7,915008
KRWI,RWI,,Rocky Mt. Wilson,NC,US,35.86,-77.88,47,6,krwi
KCKB,CKB,,Clarksburg/Benedum,WV,US,39.29,-80.23,360,4,kckb
UHMI,,,Mys Schmidta,,RU,68.9,-179.45,1,8,uhmi
,,,a#a,,,49.5,-153.7,0,7,a#a
KU28,U28,72477,Green River,UT,US,39.01,-110.15,1241,7,u28
KBDE,BDE,,Baudette,MN,US,48.73,-94.6,329,7,kbde
OTBD,,41170,Doha Intl,,QA,25.25,51.5666666667,10,6,411700
KLBE,LBE,,Latrobe,PA,US,40.29,-79.4,361,6,klbe
KORF,ORF,72308,Norfolk Rgnl,VA,US,36.9,-76.2,14,3,korf
KILG,ILG,,Wilmington,DE,US,39.68,-75.6,28,4,kilg
KMCB,MCB,,McComb,MS,US,31.18,-90.47,124,6,kmcb
KMHE,MHE,,Mitchell Muni,SD,US,43.77,-98.04,397,7,kmhe
RPMZ,,98836,Zamboanga,,PH,6.91666666667,122.066666667,6,6,988360
KCEC,CEC,,Crescent City,CA,US,41.79,-124.24,17,6,kcec
,,,c09,,,35.96,-105.33,2522,7,c09
SVMC,,80407,Maracaibo/La Chi,,VE,10.5666666667,-71.7166666667,65,6,svmc
CWZV,WZV,71107,Cape Saint James,BC,CA,51.94,-131.02,92,7,cwzv
KOGD,OGD,72575,Ogden,UT,US,41.2,-112.01,1353,1,kogd
KROC,ROC,72529,Rochester,NY,US,43.12,-77.67,178,6,kroc
,,,b#8,,,27.9,-95.0,0,7,b#8
,,,915017,,,3.8,155.0,0,7,915017
LRSV,,15023,Suceava/Salcea,,RO,47.6833333333,26.35,351,7,915023
,,,000259,,,45.35,-117.23,1250,7,000259
KTPH,TPH,72485,Tonopah,NV,US,38.08,-117.08,1652,0,ktph
,,,406910,,,27.0,50.0,0,7,406910
KAGS,AGS,72218,Augusta,GA,US,33.38,-81.97,44,4,kags
MMOX,OAX,76775,Oaxaca/Xoxocotlan,,MX,16.97,-96.73,1528,6,oax
KENV,ENV,72581,Wendover AFB,UT,US,40.73,-114.03,1292,4,kenv
,,6181,Koebenhavn/Jaeg,,DK,55.7666666667,12.5333333333,50,8,006181
KBKW,BKW,72412,Beckley,WV,US,37.79,-81.12,764,6,kbkw
,,,c23,,,46.2,-97.5,358,7,c23
KSLO,SLO,,Salem,IL,US,38.65,-88.97,175,7,slo
KFVX,FVX,,Farmville,VA,US,37.35,-78.43,125,7,kfvx
KLFK,LFK,,Lufkin,TX,US,31.23,-94.75,88,6,klfk
,,,000241,,,39.16,-89.67,210,7,000241
EKEB,,6080,Esbjerg,,DK,55.5166666667,8.55,29,6,406080
,,,915019,,,7.0,157.9,0,7,915019
KAUG,AUG,,Augusta,ME,US,44.32,-69.8,109,4,kaug
BGTL,,4202,Thule Ab,,GL,76.5333333333,-68.7,77,6,bgtl
MMMX,MEX,,Mexico City/Licenci,,MX,19.43,-99.1,2238,1,mmmx
MMAS,AGU,76571,Aguascalientes,,MX,21.88,-102.3,1863,6,mmas
KMNM,MNM,,Menominee,MI,US,45.12,-87.63,191,7,kmnm
,,,wsd,,,32.24,-106.22,1207,7,wsd
,,,000741,,,40.14,-80.29,361,7,000741
KRKD,RKD,,Rockland,ME,US,44.08,-69.12,17,7,krkd
KSJC,SJC,74505,San Jose Intl,CA,US,37.37,-121.93,24,6,ksjc
KSBY,SBY,,Salisbury,MD,US,38.34,-75.5,19,4,ksby
KPBF,PBF,,Pine Bluff,AR,US,34.18,-91.93,62,6,kpbf
PAEI,EIL,70265,Eielson AFB,AK,US,64.67,-147.1,167,6,paei
PANI,ANI,70232,Aniak,AK,US,61.58,-159.53,26,7,pani
CWTA,WTA,71612,McTavish,QB,CA,45.5,-73.57,36,7,mcgl
CYCB,YCB,71925,Cambridge Bay,NU,CA,69.1,-105.1,27,5,cycb
,,,g009,,,42.7,-121.4,1524,7,g009
MSSS,,78663,Ilopango/San Salvador,,SV,13.7,-89.12,616,6,msss
PASN,SNP,70308,St Paul Island,AK,US,57.15,-170.22,29,5,pasn
SAEZ,,87576,Buenos Aires/Eze,,AR,-34.8166666667,-58.5166666667,20,6,875760
KEGE,EGE,,Eagle,CO,US,39.66,-106.92,1993,6,kege
KOVN,OVN,72553,North Omaha,NE,US,41.38,-96.02,406,8,725533
,,,035394,,,49.8,73.15,553,7,035394
KHKY,HKY,,Hickory,NC,US,35.76,-81.38,354,6,khky
,,,c33,,,35.3,-98.9,457,7,c33
,,,c01,,,37.2,-118.8,2936,7,c01
KINT,INT,72319,Winston-Salem,NC,US,36.13,-80.22,291,4,kint
,,,le3,,,42.74,-79.35,174,7,le3
KBZN,BZN,,Bozeman,MT,US,45.79,-111.15,1361,4,kbzn
,,,000275,,,35.85,-121.31,475,7,000275
,,,000299,,,43.78,-82.99,234,7,000299
,,,999290,,,7.2,79.9,8,7,999290
MUBA,,78268,Baracoa Oriente,,CU,20.35,-74.5,9,7,muba
,,,s#1,,,50.0,-135.0,0,7,s#1
KSLK,SLK,,Saranac Lake,NY,US,44.39,-74.21,498,6,kslk
,,,a#3,,,75.0,-140.0,0,7,a#3
CYRB,YRB,71924,Resolute,NU,CA,74.72,-94.95,67,5,cyrb
PAJN,JNU,70381,Juneau Intl,AK,US,58.38,-134.58,5,0,pajn
SBNT,,82599,Natal/Augusto Se,,BR,-5.91666666667,-35.25,49,6,825990
,,,nw5,,,43.6,-135.5,0,7,nw5
MHRO,,78703,Roatan,,HN,16.3166666667,-86.5333333333,5,6,mhro
LIPZ,,16105,Venezia/Tessera,,IT,45.5,12.35,6,6,161050
,,,000710,,,34.89,-91.2,56,7,000710
KBAF,BAF,,Westfield,MA,US,42.16,-72.72,83,6,kbaf
,,,s#5,,,25.0,-120.0,0,7,s#5
,,,knl,,,60.37,-149.41,365,7,knl
MUNG,,78221,Nueva Gerona,Isla De Pinos,CU,21.83,-82.783,23,7,mung
CYQI,YQI,71603,Yarmouth,NS,CA,43.84,-66.08,43,5,cyqi
KRFD,RFD,72543,Rockford,IL,US,42.21,-89.1,221,4,krfd
MPMG,,,Marcos Gelabert,,PA,8.98333333333,-79.5666666667,13,7,mpmg
FJDG,,61967,Diego Garcia,,MU,-7.3,72.4,3,6,619670
KSWF,SWF,,Stewart,NY,US,41.51,-74.1,150,6,kswf
MMAA,ACA,,Acapulco/Alvarez,,MX,16.77,-99.75,5,3,mmaa
LIRF,,16242,Rome/Fiumicino,,IT,41.7833333333,12.2166666667,3,6,162420
KBVX,BVX,,Batesville,AR,US,35.73,-91.65,141,7,kbvx
,,,g001,,,47.5,-121.1,1453,7,g001
CYXE,YXE,71866,Saskatoon,SK,CA,52.18,-106.7,504,5,cyxe
,,,000353,,,36.14,-120.35,312,7,000353
KGLD,GLD,72465,Goodland,KS,US,39.38,-101.7,1113,3,kgld
,,,000722,,,33.46,-80.85,59,7,000722
SCEL,,85574,Pudahuel/Arturo,,CL,-33.3666666667,-70.7666666667,476,6,855740
,,12843,Budapest/Lorinc,,HU,47.4333333333,19.1833333333,140,8,128430
KRNK,RNK,72318,Roanoke/Blacksburg,VA,US,37.2,-80.4,648,8,krnk
KGRK,GRK,,Granger,TX,US,30.72,-97.38,182,8,hoo
KLAN,LAN,72539,Lansing,MI,US,42.78,-84.6,264,4,klan
KSUX,SUX,72557,Sioux City Muni,IA,US,42.41,-96.38,338,3,ksux
CYQQ,YQQ,71893,Comox,BC,CA,49.73,-124.9,24,6,cyqq
KRDD,RDD,72592,Redding Muni,CA,US,40.51,-122.3,155,3,rdd
KTTD,TTD,,Portland/Troutdale,OR,US,45.55,-122.4,14,6,kttd
KREO,REO,,Rome,OR,US,42.58,-117.89,1235,6,reo
KP11,P11,72758,Devils Lake,ND,US,48.11,-98.87,443,7,kp11
,,,000742,,,42.46,-75.06,470,7,000742
PASI,SIT,70371,Sitka,AK,US,57.07,-135.35,5,6,pasi
,,,kbnv,,,40.2,-113.3,1331,7,kbnv
KAKO,AKO,,Akron,CO,US,40.17,-103.22,1431,8,724698
KBIS,BIS,72764,Bismarck Muni,ND,US,46.78,-100.75,505,0,kbis
,,,000944,,,35.6,-73.8,0,7,000944
MWCR,,78384,Owen Roberts,Grand Cayman,KY,19.28,-81.35,3,5,mwcr
,,,000960,,,29.6,-117.0,0,7,000960
KRDU,RDU,72306,Raleigh-Durham,NC,US,35.88,-78.78,130,2,723066
,,,000730,,,43.33,-120.84,1350,7,000730
KCRW,CRW,72414,Charleston,WV,US,38.38,-81.6,309,6,kcrw
YSCB,,94926,Canberra,,AU,-35.2833333333,149.166666667,577,6,949260
,,15001,Avrameni,,RO,48.0166666667,26.95,240,8,915001
KCHO,CHO,,Charlottesville,VA,US,38.14,-78.45,192,6,kcho
CWPH,WPH,,Inukjuak,QB,CA,58.46,-78.12,253,8,cwph
,,,estc,,,47.46,-69.22,264,7,estc
KMPX,MPX,72649,Chanhassen,MN,US,44.85,-93.5666666667,288,8,mpx
,,,c7h,,,38.5,-70.7,0,7,c7h
,,,000294,,,39.0,-123.12,165,7,000294
MMMA,MAM,,Matamoros Intl,,MX,25.77,-97.53,8,6,mmma
KBWI,BWI,72406,Baltimore/Washington Intl,MD,US,39.19,-76.67,59,3,kbwi
,,,000269,,,30.59,-100.65,691,7,000269
,,,000230,,,47.66,-90.91,463,7,000230
OIII,,40754,Tehran/Mehrabad,,IR,35.6833333333,51.3,1191,6,407540
OMDB,,41194,Dubai Intl Airpo,,AE,25.25,55.3666666667,5,6,411940
PACV,CDV,70296,Cordova,AK,US,60.5,-145.5,12,6,pacv
,,,999320,,,19.1,72.8,8,7,999320
,,,c22,,,47.5,-99.0,461,7,c22
KMEM,MEM,72334,Memphis Intl,TN,US,35.04,-89.98,86,2,kmem
KBFI,BFI,,Seattle/Boeing Field,WA,US,47.53,-122.3,4,1,kbfi
KALB,ALB,72518,Albany,NY,US,42.76,-73.8,92,3,kalb
PTKK,,91334,Truk Intl/Moen Is,,FM,7.47,151.85,2,5,913340
,,,a#2,,,74.3,-156.6,0,7,a#2
CYCX,YCX,71701,Gagetown,NB,CA,45.84,-66.43,51,6,cycx
,,,g#a,,,23.3,-95.6,0,7,g#a
,,,u#c,,,66.17,-169.83,7,7,u#c
KPHP,PHP,,Philip,SD,US,44.05,-101.6,672,7,php
KMFE,MFE,,McAllen,TX,US,26.18,-98.24,38,6,kmfe
SBBV,,82022,Boa Vista,,BR,2.85,-60.7,140,5,820220
,,,000948,,,48.1,-130.5,0,7,000948
KGFK,GFK,,Grand Forks Intl,ND,US,47.96,-97.18,258,2,kgfk
CYHM,YHM,71263,Hamilton Airport,ON,CA,43.17,-79.94,238,6,cyhm
,,,003357,,,-33.0,-57.0,0,7,003357
KRKS,RKS,72574,Rock Springs,WY,US,41.61,-109.07,2060,6,krks
,,,999280,,,-23.4,-46.5,751,7,999280
,,,000734,,,44.4,-118.96,1127,7,000734
CYHZ,YHZ,71395,Halifax Intl,NS,CA,44.89,-63.52,145,0,cyhz
,,,Ferris Mountain,WY,US,42.2,-107.2,2133,8,psr
CYLJ,YLJ,71125,Meadow Lake,SK,CA,54.14,-108.52,480,7,cylj
MGGT,,78641,Guatemala/La Au,,GT,14.5666666667,-90.5333333333,1509,6,mggt
PWAK,,91245,Wake Island,UM,US,19.28,166.65,4,6,912450
,,,000715,,,35.21,-100.25,700,7,000715
HLKF,,62271,Kufra,,LY,24.2166666667,23.3,435,7,622710
,,,000724,,,45.89,-93.27,309,7,000724
,,,999210,,,12.7,101.0,3,7,999210
KIAG,IAG,,Niagara Falls,NY,US,43.11,-78.95,182,4,kiag
,,,000725,,,45.15,-92.54,304,7,000725
KFDY,FDY,,Findlay,OH,US,41.03,-83.67,247,6,kfdy
KISN,ISN,72767,Williston,ND,US,48.16,-103.6,579,6,kisn
,,,000726,,,45.23,-96.0,311,7,000726
KMKX,MKX,72640,Milwaukee/WFO,WI,US,42.9666666667,-88.55,292,8,kmkx
,,,Thomas,WV,US,39.17,-79.52,956,9,pie
KPVW,PVW,,Plainview,TX,US,34.2,-101.7,1024,7,c10
K1V4,1V4,72614,St. Johnsbury,VT,US,44.42,-72.02,210,7,1v4
KSDF,SDF,72423,Louisville/Standiford,KY,US,38.19,-85.73,146,6,ksdf
,,,g010,,,32.42,-110.73,2414,7,g010
,,,000950,,,45.3,-129.7,0,7,000950
KERY,ERY,,Newberry,MI,US,46.31,-85.46,265,7,kery
,,,g004,,,44.0,-115.0,2705,7,g004
KFSM,FSM,72344,Fort Smith Muni,AR,US,35.34,-94.37,140,3,kfsm
,,,c14,,,41.0,-107.0,2504,7,c14
GVAC,,8594,Sal Isl/Amilcar,,CV,16.7166666667,-22.9333333333,55,6,008594
TNCA,,78982,Queen Beatrix,Aruba,AW,12.5,-70.0,18,6,tnca
CYYZ,YYZ,71624,Toronto Intl,ON,CA,43.69,-79.63,173,3,cyyz
,,,503530,,,51.72,126.65,178,7,503530
KWYS,WYS,,W Yellowstone,MT,US,44.6884,-111.118,2025,8,kwys
KSPI,SPI,72439,Springfield,IL,US,39.86,-89.67,181,6,kspi
KPYX,PYX,,Perryton,TX,US,36.5,-100.8,893,8,g#1
PAAQ,PAQ,70274,Palmer Muni,AK,US,61.61,-149.09,73,6,paaq
CYSY,YSY,71051,Sachs Harbour,NT,CA,72.0,-125.27,86,6,cysy
OMAA,,41217,Abu Dhabi Intl,,AE,24.4166666667,54.6333333333,27,6,412170
KHUL,HUL,,Houlton,ME,US,46.14,-67.78,150,2,khul
SKRG,,80112,Rionegro/Jose Ma,,CO,6.16666666667,-75.4166666667,2137,6,skrg
MMTM,TAM,76548,Tampico/Gen F J Mina,,MX,22.28,-97.87,24,6,mmtm
,PRC,74649,Purcell Profiler,OK,US,34.98,-97.52,331,8,p#q
PTSA,,91356,Kusaie/Kosrae East,,FM,5.33,163.03,3,6,913560
KXMR,XMR,74794,Cocoa Beach,FL,US,28.468,-80.567,3,8,xmr
,,,000298,,,40.58,-111.63,2652,7,000298
CYYR,YYR,71816,Goose Bay,NF,CA,53.33,-60.42,49,5,cyyr
KOTX,OTX,72786,Spokane/WFO,WA,US,47.68,-117.63,727,8,kotx
KVIH,VIH,72445,Rolla-Vichy,MO,US,38.13,-91.77,350,8,724456
KSOW,SOW,,Show Low,AZ,US,34.265,-110.006,1954,6,sow
,,,915026,,,11.2,169.8,0,7,915026
KMSL,MSL,,Muscle Shoals,AL,US,34.75,-87.61,164,6,kmsl
,,,000941,,,39.3,-65.7,0,7,000941
KLBX,LBX,,Angleton/Lake Jackson,TX,US,29.12,-95.47,8,8,722527
,,,b#b,,,41.1,-66.6,0,7,b#b
KSBN,SBN,72535,South Bend,IN,US,41.71,-86.32,237,4,ksbn
KELM,ELM,,Elmira,NY,US,42.18,-76.9,302,6,kelm
KINL,INL,72747,International Falls,MN,US,48.58,-93.38,360,1,kinl
KDMW,DMW,,Westminster,MD,US,39.61,-77.01,244,8,w54
KTVL,TVL,,South Lake Tahoe,CA,US,38.91,-120.0,1924,6,ktvl
KGLS,GLS,72242,Galveston,TX,US,29.27,-94.87,6,6,kgls
KFRM,FRM,,Fairmont,MN,US,43.66,-94.42,354,6,kfrm
KRZR,RZR,,Cleveland,TN,US,35.2,-84.8,254,7,cld
KWRL,WRL,,Worland Muni,WY,US,43.98,-107.97,1271,6,kwrl
KIAD,IAD,72403,Washington/Dulles,VA,US,38.96,-77.45,93,0,kiad
,,,atl3,,,32.8,-77.2,0,7,atl3
SKMD,,80110,Medellin/Olaya H,,CO,6.21666666667,-75.5833333333,1499,7,skmd
KDIK,DIK,,Dickinson,ND,US,46.79,-102.8,788,6,kdik
KPVU,PVU,,Provo,UT,US,40.23,-111.72,1369,6,kpvu
KSDM,SDM,,San Diego/Brown Field,CA,US,32.58,-116.98,159,7,ksdm
KDUJ,DUJ,,Dubois,PA,US,41.19,-78.9,554,6,kduj
KHYA,HYA,,Hyannis,MA,US,41.68,-70.28,22,6,khya
,,,999380,,,34.6,-118.1,775,7,999380
KCLM,CLM,,Port Angeles,WA,US,48.12,-123.5,85,6,kclm
KFTY,FTY,,Atlanta/Fulton Co-Brown Field,GA,US,33.78,-84.52,263,3,kfty
K4BL,4BL,72472,Blanding,UT,US,37.62,-109.47,1840,7,4bl
,,,999080,,,-40.5,-68.0,273,7,999080
,,,wja,,,52.88,-118.07,1093,7,wja
,,,nw2,,,47.7,-144.1,0,7,nw2
KBMG,BMG,,Bloomington,IN,US,39.15,-86.62,258,6,724375
KSDY,SDY,,Sidney/Richland,MT,US,47.73,-104.18,605,6,ksdy
,,,Prudhoe Bay,AK,US,69.0,-149.0,493,8,pln
K40B,40B,,Clayton Lake,ME,US,46.62,-69.52,314,8,k40b
CWOS,WOS,71399,Shelborne,NS,CA,43.73,-65.25,30,8,cwos
TFFR,,78897,Le Raizet,,GP,16.2666666667,-61.5333333333,11,8,tffr
KBTV,BTV,72617,Burlington Intl,VT,US,44.48,-73.15,105,3,kbtv
KMKL,MKL,,Jackson,TN,US,35.61,-88.92,128,6,kmkl
EDDI,,10384,Berlin/Tempelhof,,DE,52.4666666667,13.4,49,6,103840
,,,637390,,,-1.28,36.83,1637,7,637390
KSLC,SLC,72572,Salt Lake City I,UT,US,40.79,-111.97,1286,0,kslc
KLOR,LOR,,Ft. Rucker,AL,US,31.356,-85.751,74,7,lor
KJDN,JDN,,Jordan,MT,US,47.33,-106.93,801,7,jdn
KDPA,DPA,,Chicago/DuPage,IL,US,41.93,-88.25,231,6,kdpa
GMMX,,60230,Marrakech/Manara,,MA,31.62,-8.03,466,6,602300
MSAC,,78650,Acajutla/Sonsonate,,SV,13.57,-89.83,15,7,msac
CWTI,WTI,71100,Triple Island,BC,CA,54.3,-130.88,21,7,471100
MHLM,,78708,La Mesa/Pedro S,,HN,15.45,-87.9333333333,26,6,mhlm
CYQR,YQR,71863,Regina,SK,CA,50.44,-104.67,577,0,cyqr
KNKX,NKX,72293,Miramar NAS,CA,US,32.88,-117.15,146,5,nkx
,,,000365,,,29.81,-91.66,4,7,000365
KHIB,HIB,,Hibbing,MN,US,47.39,-92.85,412,3,khib
SKBG,,80094,Bucaramango/Palo,,CO,7.13333333333,-73.1833333333,1189,7,skbg
KGEG,GEG,72785,Spokane Intl,WA,US,47.64,-117.53,735,1,kgeg
,,,pse,,,17.85,-66.52,0,7,pse
KGCN,GCN,72378,Grand Canyon,AZ,US,35.96,-112.15,2016,4,kgcn
MMPR,PVR,,Puerto Vallarta,,MX,20.68,-105.25,6,6,mmpr
PAFE,AFE,,Kake Seaplane Base,AK,US,56.97,-134.0,0,7,kak
K5R0,5R0,,East Addition B3,TX,US,28.2,-93.7,0,8,s#8
,,,000232,,,55.31,-160.52,6,7,000232
,,,001006,,,41.89,-72.71,56,7,001006
KSFM,SFM,,Sanford,ME,US,43.4,-70.72,74,7,726064
,,,915022,,,11.8,162.5,0,7,915022
,,,w#n,,,37.48,-96.93,381,7,w#n
,,,999220,,,20.3,41.6,1653,7,999220
KDSM,DSM,72546,Des Moines Intl,IA,US,41.54,-93.65,295,2,kdsm
KSTC,STC,72655,St. Cloud,MN,US,45.55,-94.07,314,3,stc
KCRQ,CRQ,,Carlsbad,CA,US,33.14,-117.28,99,6,kcrq
KCAK,CAK,72521,Akron-Canton Rgnl,OH,US,40.93,-81.43,377,6,kcak
,,,icc,,,70.4,-161.9,0,7,icc
KORH,ORH,,Worcester,MA,US,42.28,-71.87,304,6,korh
CWLB,WLB,71931,Lac La Biche,AB,CA,54.78,-112.02,567,7,cwlb
PABI,BIG,70267,Ft. Greely,AK,US,63.97,-145.7,386,6,702670
,,,b#d,,,42.5,-130.5,0,7,b#d
KSSC,SSC,74790,Sumter/Shaw AFB,SC,US,33.98,-80.47,74,6,747900
,,,477720,,,34.68,135.53,50,7,477720
PAEH,EHM,70305,Cape Newenham,AK,US,58.66,-162.07,161,6,paeh
,,,nru,,,66.85,-154.34,317,7,nru
,,,000297,,,33.82,-106.65,1499,7,000297
KUCA,UCA,,Utica,NY,US,43.15,-75.3833333333,228,4,kuca
KALW,ALW,72788,Walla Walla Regnl,WA,US,46.09,-118.29,363,6,727883
,,,sanq,,,37.94,-122.5,1,7,sanq
KHPN,HPN,,White Plains,NY,US,41.08,-73.72,121,6,khpn
KBRD,BRD,,Brainerd,MN,US,46.4,-94.13,372,4,kbrd
,,,s#b,,,28.0,-89.0,0,7,s#b
CYPE,YPE,71068,Peace River,AB,CA,56.23,-117.45,571,6,cype
KDYS,DYS,69019,Abilene/Dyess AFB,TX,US,32.44,-99.85,545,6,dys
KCAD,CAD,,Cadillac,MI,US,44.29,-85.42,398,7,kcad
,,,kna,,,60.59,-150.32,125,7,kna
,,,606800,,,22.82,5.47,1377,7,606800
MHCH,,78724,Choluteca,,HN,13.3166666667,-87.15,48,6,mhch
RKPK,,47153,Busan/Kimhae Int,,KR,35.1666666667,128.916666667,15,6,471530
KPWD,PWD,,Plentywood,MT,US,48.7833333333,-104.516666667,686,8,pwd
,,,bls,,,61.95,-151.0,44,7,bls
EHTW,,6290,Twente RNLAFB,,NL,52.2666666667,6.9,36,6,062900
,,,000745,,,31.27,-89.26,46,7,000745
KPSC,PSC,,Pasco,WA,US,46.27,-119.12,121,6,kpsc
,,,won,,,63.49,-150.88,605,7,won
MMHO,HMO,76160,Hermosillo Intl,,MX,29.07,-110.97,184,6,mmho
EGET,LWK,3005,Lerwick,,GB,60.1333333333,-1.18333333333,82,8,003005
KMSY,MSY,72231,New Orleans Intl,LA,US,29.98,-90.25,5,0,kmsy
KOFK,OFK,72556,Norfolk,NE,US,41.98,-97.43,470,6,kofk
KLSF,LSF,72225,Fort Benning,GA,US,32.34,-85.0,71,6,lsf
KDLN,DLN,,Dillon,MT,US,45.25,-112.55,1597,6,kldn
,,,000753,,,40.92,-88.63,201,7,000753
PHLI,LIH,91165,Lihue,HI,US,21.98,-159.35,45,5,phli
,TCU,74731,Tucumcari Profiler,NM,US,35.08,-103.61,1241,8,p#s
,,,klcb,,,29.22,-114.28,701,7,klcb
KMTV,MTV,,Martinsville,VA,US,36.63,-80.02,287,7,mtv
KJKL,JKL,,Jackson,KY,US,37.58,-83.32,416,5,kjkl
,,,abl,,,34.1,-86.1,304,7,abl
,,,000239,,,45.97,-86.17,209,7,000239
KOTH,OTH,72691,North Bend,OR,US,43.43,-124.25,4,6,koth
,,,g005,,,46.9,-121.3,1639,7,g005
KSNS,SNS,,Salinas Muni,CA,US,36.66,-121.61,30,6,ksns
KILX,ILX,74560,Lincoln,IL,US,40.15,-89.3333333333,177,8,ilx
,,,000718,,,38.37,-93.79,231,7,000718
,,,726220,,,44.65,-73.47,0,7,726220
,,,nw9,,,50.5,-141.38,0,7,nw9
KSAW,SAW,,K I Sawyer AFB,MI,US,46.36,-87.4,372,8,ksaw
KCAE,CAE,72310,Columbia,SC,US,33.96,-81.12,70,3,kcae
K5T6,5T6,72364,Santa Teresa,NM,US,31.87,-106.7,1251,8,kepz
CYYJ,YYJ,71799,Victoria Intl,BC,CA,48.66,-123.43,19,6,cyyj
,,,035363,,,50.22,66.83,343,7,035363
KHUT,HUT,,Hutchinson,KS,US,38.08,-97.87,467,6,khut
PHTO,ITO,91285,Hilo,HI,US,19.72,-155.07,12,5,phto
TUPJ,,78550,Beef Is/Roadtown,,VI,18.45,-64.53,4,7,tupj
OAKN,KDH,40990,Kandahar Intl,,AF,31.5,65.8333333333,1010,7,409900
LICP,,16410,Palmero/Boccadif,,IT,38.1,13.3,117,7,616410
,,,000747,,,28.82,-81.81,24,7,000747
,,,000267,,,26.75,-80.94,6,7,000267
,,,s#7,,,28.0,-87.0,0,7,s#7
KDOV,DOV,,Dover AFB,DE,US,39.14,-75.47,9,6,dov
KLBF,LBF,72562,North Platte,NE,US,41.14,-100.68,847,3,klbf
,,,c24,,,46.0,-95.0,416,7,c24
KPWM,PWM,72606,Portland Intl,ME,US,43.66,-70.32,15,3,kpwm
CYLW,YLW,71203,Kelowna,BC,CA,49.95,-119.4,456,1,cwlw
,,,000719,,,39.42,-92.44,264,7,000719
KBRO,BRO,72250,Brownsville Intl,TX,US,25.9,-97.43,7,0,kbro
KMLB,MLB,72204,Melbourne,FL,US,28.11,-80.63,11,4,kmlb
,,,ldl,,,39.1,-106.2,3535,7,ldl
KCVG,CVG,72421,Cincinnati,OH,US,39.05,-84.67,269,0,kcvg
MMZC,ZCL,,Zacatecas,,MX,22.9,-102.68,2177,4,mmzc
,,,002465,,,59.35,17.95,22,7,002465
,,,col2,,,45.72,-121.56,61,7,col2
,,,atl1,,,37.2,-74.8,0,7,atl1
,,,000235,,,41.63,-80.21,427,7,000235
KMRB,MRB,,Martinsburg,WV,US,39.41,-77.98,164,4,kmrb
,,,915027,,,9.5,170.2,0,7,915027
,,,tel,,,63.44,-153.36,185,7,tel
,,,406900,,,28.0,49.0,0,7,406900
KJAC,JAC,,Jackson,WY,US,43.61,-110.73,1961,6,kjac
KJAN,JAN,72235,Jackson,MS,US,32.33,-90.08,91,3,kjan
KCDC,CDC,,Cedar City Rgnl,UT,US,37.7,-113.1,1714,4,kcdc
HKRO,,45004,Hong Kong Ro,,HK,22.3166666667,114.166666667,66,8,450040
SKBQ,,80028,Barranquilla/Ern,,CO,10.9,-74.7666666667,10,6,skbq
KREV,REV,72489,Reno/WFO,NV,US,39.5666666667,-119.8,1516,8,krev
KFAR,FAR,72753,Fargo/Hector Field,ND,US,46.91,-96.8,277,1,kfar
,,,p#p,,,35.68,-95.86,219,7,p#p
KAZO,AZO,,Kalamazoo Intl A,MI,US,42.24,-85.55,272,6,kazo
PAWG,WRG,70387,Wrangell,AK,US,56.48,-132.396,11,6,pawg
KIAH,IAH,72243,Houston Bush Intl,TX,US,29.97,-95.35,36,2,kiah
KPHF,PHF,,Patrick Henry,VA,US,37.14,-76.5,12,6,kphf
KGCK,GCK,,Garden City,KS,US,37.94,-100.72,877,4,kgck
KCOU,COU,72445,Columbia Rgnl,MO,US,38.83,-92.22,271,4,kcou
SKSM,,80009,Santa Marta/Simo,,CO,11.1166666667,-74.2166666667,4,7,sksm
KCLL,CLL,,College Station,TX,US,30.58,-96.37,96,4,kcll
KMBS,MBS,,Saginaw,MI,US,43.53,-84.08,202,6,kmbs
KHOU,HOU,,Houston/Hobby,TX,US,29.65,-95.28,36,3,khou
MUCL,,,Cayo Largo Del Sur,,CU,21.63,-81.55,5,7,mucl
KIJD,IJD,,Willimantic,CT,US,41.75,-72.18,75,7,ijd
,,,469020,,,10.72,115.83,5,7,469020
MYEG,,78092,George Town,Exuma,BS,23.5,-75.766,3,7,myeg
,,,g#6,,,26.3,-98.8,53,7,g#6
CYVO,YVO,71725,Val D'Or,QB,CA,48.05,-77.78,337,6,cyvo
,,,000752,,,35.87,-98.42,472,7,000752
CYBK,YBK,71926,Baker Lake,NU,CA,64.3,-96.0,18,5,cybk
SGAS,,86218,Asuncion/Silvio,,PY,-25.25,-57.5166666667,101,6,862180
,,,b#o,,,19.3,-160.8,0,7,b#o
PAFM,AFM,,Ambler,AK,US,67.1,-157.85,88,7,pafm
KTWF,TWF,,Twin Falls,ID,US,42.48,-114.48,1266,6,ktwf
,,,b#k,,,40.4,-124.5,0,7,b#k
,,,000733,,,45.36,-117.25,1256,7,000733
KSBA,SBA,,Santa Barbara,CA,US,34.44,-119.83,3,6,ksba
,,,a#4,,,60.6,-173.3,0,7,a#4
KH02,H02,,High Island 334A,LA,US,28.06,-93.4,30,7,h02
,,,915028,,,6.1,171.8,0,7,915028
KGMU,GMU,,Greenville Downtown,SC,US,34.85,-82.35,315,5,kgmu
YMML,,94866,Melbourne Intl,,AU,-37.6666666667,144.816666667,141,6,948660
KEWB,EWB,,New Bedford,MA,US,41.69,-70.97,23,7,kewb
,,,lm1,,,45.33,-86.42,177,7,lm1
,,,915006,,,8.3,137.5,0,7,915006
KAPX,APX,72634,Gaylord/Alpena/WFO,MI,US,44.9,-84.7166666667,446,8,apx
KLIC,LIC,,Limon,CO,US,39.2734,-103.667,1630,4,lic
KLGB,LGB,72297,Long Beach,CA,US,33.83,-118.15,10,6,klgb
KFOD,FOD,72549,Fort Dodge,IA,US,42.55,-94.18,355,6,725490
,,,b#j,,,46.2,-124.2,0,7,b#j
KESF,ESF,,Alexandria,LA,US,31.4,-92.3,28,6,kesf
MYBS,,78070,Alice Town,Bimini,BS,25.73,-79.3,3,7,mybs
LIRA,,16239,Ciampino,,IT,41.8,12.5833333333,101,6,162390
PTRO,,91408,Koror/Palau Is,,FM,7.33,134.48,54,5,914080
,,,000755,,,48.69,-116.32,539,7,000755
VNKT,,44454,Kathmandu Intl,,NP,27.6833333333,85.3666666667,1337,6,444540
,,,col3,,,45.68,-120.82,61,7,col3
,,,trav,,,38.06,-121.77,-2,7,trav
MHLE,,78719,La Esperanza,,HN,14.3166666667,-88.15,1100,6,mhle
,,,piko,,,52.95,-168.85,21,7,piko
MMML,MXL,,Mexicali Intl,,MX,32.66,-115.49,22,6,mmml
,,,000361,,,30.43,-104.33,1433,7,000361
,,,g007,,,44.1,-120.5,1178,7,g007
KODX,ODX,,Ord,NE,US,41.62,-98.95,631,8,725524
KPTK,PTK,,Pontiac,MI,US,42.67,-83.42,299,2,kptk
,,,000754,,,41.56,-73.05,82,7,000754
,,,ptba,,,37.82,-122.47,0,7,ptba
KHSI,HSI,,Hastings,NE,US,40.61,-98.43,591,7,hsi
,,,b#7,,,25.9,-85.9,0,7,b#7
KMWN,MWN,72613,Mount Washington,NH,US,44.28,-71.3,1910,7,726134
,,,041004,,,32.5,-79.07,0,7,041004
ZLSN,,57036,Xi'An,,CN,34.2833333333,108.916666667,398,7,570360
KBWG,BWG,,Bowling Green,KY,US,36.96,-86.42,168,4,kbwg
KVLD,VLD,,Valdosta,GA,US,30.79,-83.28,62,6,kvld
EGVA,FFD,3644,RAF Fairford,,GB,51.6666666667,-1.76666666667,87,7,003644
SKBO,,80222,Bogota/ElDorado,,CO,4.7,-74.1166666667,2548,6,skbo
KDAB,DAB,,Daytona Beach,FL,US,29.18,-81.05,9,3,kdab
KACT,ACT,72256,Waco-Madison Coo,TX,US,31.62,-97.22,151,6,kact
LIPX,,16090,Villafranca,,IT,45.3833333333,10.8666666667,68,6,716090
EFHK,,2974,Helsinki/Vantaa,,FI,60.3166666667,24.9666666667,56,6,002974
CWSA,WSA,71600,Sable Island,NS,CA,43.94,-60.02,4,5,cwsa
KRSW,RSW,,Ft. Myers/SW Florida Intl,FL,US,26.54,-81.76,10,6,krsw
PHOG,OGG,91190,Kahului Airport,HI,US,20.9,-156.43,12,6,phog
KSCK,SCK,72492,Stockton,CA,US,37.91,-121.25,10,6,ksck
KLUK,LUK,,Cincinnati/Lunken,OH,US,39.1,-84.42,155,1,kluk
KLAA,LAA,72463,Lamar,CO,US,38.07,-102.68,1119,4,laa
MDPP,,78457,Puerto Plata Intl,,DO,19.75,-70.55,5,6,mdpp
CWSE,WSE,71119,Edmonton/Stony Plain,AB,CA,53.5333333333,-114.083333333,766,8,cwse
,,,nw7,,,48.5,-129.5,0,7,nw7
PKMJ,,91376,Majuro,MH,US,7.08,171.38,3,5,913760
KTVC,TVC,,Traverse City,MI,US,44.73,-85.58,190,6,ktvc
,,,000205,,,59.9,-161.75,16,7,000205
KMHT,MHT,,Manchester,NH,US,42.94,-71.43,81,6,kmht
KMLC,MLC,,McAlester,OK,US,34.89,-95.78,232,6,kmlc
KCTB,CTB,,Cut Bank,MT,US,48.61,-112.37,1175,4,kctb
,,,000358,,,33.02,-114.24,303,7,000358
,,,999550,,,46.0,63.56,99,7,999550
KSAC,SAC,,Sacramento Executive,CA,US,38.52,-121.5,11,2,ksac
,,,000350,,,36.2,-119.1,139,7,000350
KCSG,CSG,,Columbus,GA,US,32.53,-84.93,135,6,kcsg
,,,000764,,,36.53,-93.2,397,7,000764
KBHB,BHB,,Bar Harbor,ME,US,44.46,-68.37,26,7,kbhb
CWZC,,,Moosonee,ON,CA,51.2833333333,-80.6,11,8,cwzc
CYXU,YXU,71623,London,ON,CA,43.04,-81.15,278,6,cyxu
KGGG,GGG,72247,Longview,TX,US,32.38,-94.71,107,4,kggg
KSMP,SMP,,Stampede Pass,WA,US,47.29,-121.33,1208,3,smp
TQPF,,78846,Wall Blake,,VI,18.1833333333,-63.0333333333,31,7,tqpf
KFLL,FLL,,Fort Lauderdale/Hollywood Intl,FL,US,26.07,-80.15,3,6,kfll
KCOT,COT,,Cotulla,TX,US,28.45,-99.22,140,7,cot
KPIT,PIT,72520,Pittsburgh Intl,PA,US,40.51,-80.22,357,2,kpit
MMMY,MTY,,Monterrey/Gen Maria,,MX,25.78,-100.1,387,6,mmmy
WIID,,96743,Jakarta/Kemayor,,ID,-6.15,106.833333333,5,7,967430
KBIL,BIL,72677,Billings,MT,US,45.8,-108.53,1091,6,kbil
CWNL,WNL,71462,Great Duck Island,ON,CA,45.64,-82.97,183,7,wnl
KDHN,DHN,,Dothan,AL,US,31.32,-85.45,113,6,kdhn
KMLS,MLS,74230,Miles City,MT,US,46.44,-105.87,801,4,kmls
KDVN,DVN,74455,Davenport,IA,US,41.62,-90.58,230,3,dvn
,,,915012,,,7.4,149.2,0,7,915012
KMIW,MIW,,Marshalltown,IA,US,42.11,-92.92,290,8,aia
PAGK,GKN,70271,Gulkana,AK,US,62.15,-145.45,481,6,pagk
,,,b#f,,,46.1,-131.0,0,7,b#f
CYZS,YZS,71915,Coral Harbour,NU,CA,64.2,-83.37,64,5,cyzs
LRBM,,15014,Baia Mare,,RO,47.6666666667,23.4666666667,185,7,915014
KMSP,MSP,72658,Minneapolis-St. Paul Intl,MN,US,44.89,-93.22,265,0,kmsp
,,,000229,,,46.91,-124.11,4,7,000229
,,,stdm,,,47.18,-87.22,183,7,stdm
,,,044065,,,40.37,-73.7,0,7,044065
,,,nw3,,,37.4,-137.0,0,7,nw3
KELO,ELO,,Ely,MN,US,47.91,-91.82,443,7,kelo
KAHN,AHN,72311,Athens Muni,GA,US,33.96,-83.32,244,4,kahn
UTTT,TAS,38457,Tashkent/Yuzni,TA,UZ,41.27,69.27,489,6,384570
,,,999260,,,22.6,88.5,4,7,999260
KCOS,COS,72466,Colorado Springs,CO,US,38.83,-104.72,1856,3,kcos
,,,bh5,,,43.53,-103.65,1461,7,bh5
,,,nw4,,,47.0,-138.0,0,7,nw4
EQTK,,99915,Tarin Kowt,,AF,32.6,65.85,1357,7,999150
KRUE,RUE,,Russellville Rgnl,AR,US,35.26,-93.09,115,7,rue
MMCE,CME,,Ciudad Del Carmen,,MX,18.65,-91.8,2,6,mmce
KHVN,HVN,,New Haven/Tweed,CT,US,41.28,-72.88,4,7,khvn
KFVE,FVE,,Frenchville,ME,US,47.29,-68.32,301,7,kfve
,,,000263,,,33.64,-91.75,82,7,000263
NTTO,,91944,Hao/Tuamoto,,WS,-18.0666666667,-140.933333333,3,7,919440
KBOI,BOI,72681,Boise,ID,US,43.58,-116.22,875,0,kboi
KFYV,FYV,,Fayetteville,AR,US,36.01,-94.17,379,4,kfyv
KHTS,HTS,72425,Huntington,WV,US,38.38,-82.55,254,3,khts
,,,000705,,,25.86,-81.38,1,7,000705
,,,s#3,,,34.0,-126.0,0,7,s#3
,,,046015,,,42.75,-124.82,0,7,046015
EHYB,,6200,Ypenburg RNLAFB,,NL,52.0166666667,4.33333333333,1,7,006200
,,,000748,,,30.36,-95.41,45,7,000748
KUIN,UIN,,Quincy,IL,US,39.94,-91.2,234,6,kuin
CWTT,WTT,,Lac Memphremagog,QB,CA,45.27,-72.17,209,7,wtt
CYYC,YYC,71877,Calgary Intl,AB,CA,51.12,-114.02,1084,0,cyyc
MMUN,CUN,76595,Cancun Intl,,MX,21.03,-86.87,10,1,mmun
VTSA,,48570,Satun AFB,,TH,6.65,100.066666667,6,7,548570
FANS,,68288,Nelspruit,,ZA,-25.4166666667,30.9666666667,674,7,682880
ORBB,,40650,Baghdad-Sirsenk,,IQ,33.2166666667,44.2166666667,34,7,406500
KINK,INK,,Wink,TX,US,31.79,-103.2,855,6,kink
KEWN,EWN,,New Bern,NC,US,35.09,-77.05,3,6,kewn
,,99440,Thomas Point,MD,US,38.9,-76.5666666667,1,8,999440
MNPC,,78730,Puerto Cabezas,,NI,14.05,-83.3833333333,16,6,mnpc
CYFO,YFO,,Flin Flon,MB,CA,54.69,-101.69,304,7,cyfo
OKBK,,40582,Kuwait Intl,,KW,29.2166666667,47.9666666667,55,6,405820
KMCI,MCI,72446,Kansas City Intl,MO,US,39.33,-94.72,320,0,kmci
SKCG,,80022,Cartagena/Rafael,,CO,10.4333333333,-75.5166666667,1,6,skcg
CYXS,YXS,71908,Prince George,BC,CA,53.89,-122.68,691,0,cyxs
KFPR,FPR,,Fort Pierce,FL,US,27.5,-80.37,13,7,kfpr
KFLG,FLG,72375,Flagstaff/Pullim,AZ,US,35.14,-111.67,2134,2,flg
CYVV,YVV,71633,Wiarton,ON,CA,44.76,-81.1,222,6,cyvv
LGSA,,16746,Souda/Khania,,GR,35.48,24.12,135,6,167460
DIMN,,65548,Man,,CI,7.36666666667,-7.51666666667,340,7,655480
GOSS,,61600,Saint Louis,,SN,16.05,-16.4333333333,4,6,661600
,,,s#a,,,27.9,-91.0,0,7,s#a
SBMN,,82332,Manaus/Ponta Pel,,BR,-3.13333333333,-59.9666666667,84,6,823320
,,,pesc,,,37.1,-122.28,0,7,pesc
KBVI,BVI,,Beaver County,PA,US,40.76,-80.33,382,6,kbvi
,,,000954,,,38.5,-129.0,0,7,000954
KDAL,DAL,72258,Dallas/Love,TX,US,32.86,-96.85,158,1,kdal
KSLN,SLN,,Salina,KS,US,38.8,-97.65,385,6,ksln
KYUM,YUM,72280,Yuma Intl Airport,AZ,US,32.66,-114.6,63,3,kyum
,,,000744,,,33.17,-86.77,178,7,000744
KE74,E74,,Safford,AZ,US,32.83,-109.68,900,8,e74
,,,000347,,,40.88,-121.66,957,7,000347
KHOT,HOT,,Hot Springs,AR,US,34.48,-93.1,162,6,khot
KBYI,BYI,,Burley,ID,US,42.54,-113.77,1264,6,kbyi
KHRL,HRL,,Harlingen,TX,US,26.23,-97.67,10,6,khrl
,,,000939,,,42.35,-67.7,0,7,000939
KIND,IND,72438,Indianapolis Intl,IN,US,39.73,-86.27,241,2,kind
KJBR,JBR,,Jonesboro Muni,AR,US,35.83,-90.65,79,6,kjbr
KHSV,HSV,72323,Huntsville,AL,US,34.66,-86.77,191,4,khsv
KSMX,SMX,72394,Santa Maria,CA,US,34.91,-120.45,74,6,ksmx
,,,c07,,,38.5,-101.5,1036,7,c07
MMNL,NLD,,Nuevo Laredo Intl,,MX,27.43,-99.57,148,6,mmnl
CWEU,,71917,Eureka,NU,CA,80.0,-85.93,10,5,cweu
,,,000354,,,36.65,-118.48,3387,7,000354
KPUW,PUW,,Pullman,WA,US,46.76,-117.12,773,7,kpuw
,,,v#l,,,42.86,-100.41,792,7,v#l
KAPN,APN,72639,Alpena,MI,US,45.08,-83.57,210,4,kapn
KSFF,SFF,,Spokane/Felts Field,WA,US,47.68,-117.32,609,6,ksff
MUVR,,78229,Varadero,,CU,23.13,-81.28,65,6,muvr
,,,000708,,,31.71,-87.78,110,7,000708
,,,gvy,,,39.17,-121.11,689,7,gvy
KBFF,BFF,72566,Scottsbluff,NE,US,41.88,-103.6,1203,6,kbff
,,,725775,,,41.28,-111.03,2183,7,725775
KMQT,MQT,72743,Marquette,MI,US,46.54,-87.57,430,4,kmqt
,,,c08,,,37.4,-105.2,3199,7,c08
KCMX,CMX,72744,Houghton,MI,US,47.18,-88.5,326,6,kcmx
GLRB,,65660,Roberts Intl/Mon,,LR,6.25,-10.3333333333,18,7,656600
KDLH,DLH,72745,Duluth Intl,MN,US,46.84,-92.18,435,2,kdlh
MMDO,DGO,76423,Durango,,MX,24.13,-104.53,1857,1,mmdo
,,,000946,,,33.8,-76.0,0,7,000946
KSHV,SHV,72248,Shreveport Rgnl,LA,US,32.45,-93.83,83,3,kshv
KBIH,BIH,72480,Bishop,CA,US,37.37,-118.37,1253,6,kbih
KAQQ,AQQ,,Apalachicola,FL,US,29.7333333333,-85.0333333333,5,8,aqq
KLWB,LWB,,Lewisburg,WV,US,37.88,-80.4,702,6,klwb
,,,000234,,,44.53,-72.61,223,7,000234
,,,000357,,,40.48,-111.43,1718,7,000357
,WNF,74753,Winnfield Profiler,LA,US,31.9,-92.78,93,8,p#w
KGAG,GAG,,Gage,OK,US,36.3,-99.77,668,6,kgag
KRIC,RIC,72401,Richmond,VA,US,37.51,-77.31,50,4,kric
,,,046086,,,32.49,-118.03,0,7,046086
UHMA,,25563,Anadyr',HA,RU,64.78,177.57,62,6,uhma
,,,crr,,,65.0,-120.0,332,7,crr
YBAM,,94568,Amberley,,AU,-27.6166666667,152.716666667,31,7,945680
KSEP,SEP,72260,Stephenville,TX,US,32.215,-98.178,402,7,ksep
KBAB,BAB,,Marysville/Beale AFB,CA,US,39.14,-121.44,34,6,bab
KTUP,TUP,72332,Tupelo,MS,US,34.28,-88.77,105,4,ktup
KGVL,GVL,,Gainesville,GA,US,34.26,-83.83,386,7,gvl
,,,915002,,,15.0,145.6,0,7,915002
,,,999160,,,43.5,4.9,23,7,999160
KLCH,LCH,72240,Lake Charles Muni,LA,US,30.12,-93.22,4,3,klch
,,,c13,,,37.1,-92.3,456,7,c13
KAND,AND,,Anderson County,SC,US,34.49,-82.71,239,6,kand
,,,b#n,,,17.2,-157.8,0,7,b#n
EHEH,EIN,6370,Eindhoven RNLAFB,,NL,51.45,5.38333333333,22,6,106370
,,,000763,,,39.75,-123.21,421,7,000763
,,,999300,,,10.6,-67.0,43,7,999300
KRBG,RBG,72690,Roseburg,OR,US,43.23,-123.37,154,7,726904
KFHU,FHU,72273,Fort Huachuca,AZ,US,31.58,-110.33,1438,6,fhu
,,,000276,,,47.31,-121.85,518,7,000276
,,,Chattahooche NF,GA,US,34.8,-48.05,908,9,bra
,,,a#7,,,53.0,-139.0,0,7,a#7
,,,999200,,,24.2,120.6,5,7,999200
,,,b#e,,,51.9,-155.9,0,7,b#e
CYSD,YSD,71128,Suffield,AB,CA,50.28,-111.18,770,7,711280
,,,srv,,,61.64,-156.44,91,7,srv
LROP,,15421,Bucharest/Otopen,,RO,44.5666666667,26.1,95,6,154210
KSUS,SUS,,St Louis/Spirit,MO,US,38.66,-90.63,141,3,ksus
KDAN,DAN,,Danville,VA,US,36.58,-79.33,175,6,kdan
KCKN,CKN,,Crookston Muni,MN,US,47.86,-96.62,273,7,ckn
KECG,ECG,,Elizabeth City/Muni,NC,US,36.26,-76.18,11,6,kecg
,,,a#6,,,55.0,-155.0,0,7,a#6
LEMO,,8397,Moron AFB,,ES,37.15,-5.62,88,6,008397
MUHA,,78224,Havana/Jose Martinez,,CU,22.98,-82.4,64,0,muha
EBBR,,6451,Brussels National,,BE,50.9,4.5,58,6,006451
,,,ipx,,,44.42,-111.37,1917,7,ipx
,,,000723,,,45.5,-91.0,377,7,000723
SBMA,,82562,Maraba,,BR,-5.36666666667,-49.1333333333,102,6,825620
CYCG,YCG,71884,Castlegar,BC,CA,49.3,-117.63,495,6,cycg
KLHW,LHW,72209,Ft. Stewart,GA,US,31.9,-81.63,27,7,u#9
KMTN,MTN,,Middle River,MD,US,39.34,-76.42,7,6,kmtn
KBLF,BLF,,Bluefield,WV,US,37.3,-81.22,873,6,kblf
KDEC,DEC,,Decatur,IL,US,39.84,-88.87,207,4,kdec
KDAY,DAY,72429,Dayton Intl,OH,US,39.91,-84.2,305,4,kday
,,,000711,,,35.48,-86.09,322,7,000711
KMHX,MHX,72305,Morehead/Newport,NC,US,34.7666666667,-76.8666666667,9,8,kmhx
,,,b#g,,,40.9,-137.5,0,7,b#g
KDRO,DRO,,Dur-La Plata,CO,US,37.16,-107.75,2035,4,kdro
KPSM,PSM,,Portsmouth,NH,US,43.09,-70.82,31,6,kpsm
KVEL,VEL,,Vernal,UT,US,40.44,-109.51,1604,6,kvel
,,,000348,,,37.99,-120.38,593,7,000348
UGTB,,37549,Tbilisi/Novo-Al,,GE,41.6666666667,44.95,495,6,375490
,,,Bridgeport,CA,US,38.3,-119.16,2321,9,bdg
KAWH,AWH,,Wildhorse Reservoir,NV,US,41.67,-115.79,1902,7,awh
MHSR,,78717,Santa Rosa De C,,HN,14.7833333333,-88.7833333333,1079,6,mhsr
,,,Lake Bella,MN,US,43.5,-95.6,2339,8,che
CYMT,YMT,71822,Chibougamau-Chapais,QB,CA,49.78,-74.53,387,6,cymt
ENGM,,1384,Oslo/Gardermoen,,NO,60.2,11.1,204,6,001384
KCHH,CHH,74494,Chatham,MA,US,41.68,-69.97,16,8,kchh
,,,915016,,,5.5,153.8,0,7,915016
,,,000207,,,60.79,-148.83,29,7,000207
KFCA,FCA,72779,Kalispell,MT,US,48.3,-114.266666667,908,8,kfca
,,,c32,,,37.35,-99.35,652,7,c32
,,,nw6,,,39.7,-133.3,0,7,nw6
,,,915015,,,6.9,152.7,0,7,915015
KCDR,CDR,,Chadron,NE,US,42.84,-103.08,1010,6,kcdr
,,,c25,,,40.8,-84.2,238,7,c25
CYQL,YQL,71874,Lethbridge,AB,CA,49.64,-112.8,929,6,yql
,,,654620,,,5.6,-0.17,68,7,654620
EPWA,,12375,Warsaw/Okecie,,PL,52.1666666667,20.9666666667,107,6,123750
KFMN,FMN,,Farmington,NM,US,36.76,-108.23,1685,6,kfmn
UHML,,25496,Lavrentija,,RU,65.5833333333,-171.0,9,8,725496
KGTF,GTF,72775,Great Falls,MT,US,47.48,-111.35,1119,0,kgtf
KELY,ELY,72486,Ely,NV,US,39.29,-114.85,1906,3,kely
KJFK,JFK,74486,New York/Kennedy Intl,NY,US,40.66,-73.78,9,1,kjfk
KSAF,SAF,,Santa Fe,NM,US,35.62,-106.08,1930,1,ksaf
KPIE,PIE,,St. Petersburg/Clearwater Intl,FL,US,27.91,-82.69,4,6,kpie
,,,c35,,,34.98,-94.69,143,9,c35
MGHT,,78627,Huehuetenango,,GT,15.3166666667,-91.5,1901,6,mght
KGUC,GUC,,Gunnison,CO,US,38.55,-106.92,2339,6,kguc
KIMT,IMT,,Iron Mountain-Kingsford,MI,US,45.81,-88.11,349,7,imt
KHVR,HVR,72777,Havre,MT,US,48.55,-109.77,787,3,khvr
KLWS,LWS,72783,Lewiston,ID,US,46.39,-117.02,438,6,klws
KJAY,JAY,,Jay Peak,VT,US,44.94,-72.51,572,8,jayv
CYAH,YAH,71823,La Grande Iv,QB,CA,53.76,-73.67,306,5,cyah
PANC,ANC,70273,Anchorage Intl,AK,US,61.17,-150.0,38,5,panc
,,74546,Hillsboro Profiler,KS,US,38.31,-97.3,447,8,p#g
PAMC,MCG,70231,McGrath,AK,US,62.95,-155.61,103,5,pamc
KMKC,MKC,,Kansas City Downtown,MO,US,39.12,-94.6,227,1,kmkc
,,,b#6,,,25.9,-93.6,0,7,b#6
KAAT,AAT,,Alturas Muni,CA,US,41.491,-120.564,1331,7,kaat
KLHX,LHX,,La Junta,CO,US,38.05,-103.52,1277,7,lhx
MUCA,,78346,Venezuela/Ciego,,CU,22.0333333333,-78.7833333333,101,6,muca
,,,000292,,,37.11,-120.24,76,7,000292
,,8001,La Coruna City,,ES,43.3666666667,-8.41666666667,67,6,008001
KPIA,PIA,72532,Peoria Rgnl,IL,US,40.66,-89.68,205,4,kpia
CYJT,YJT,71815,Stephenville,NF,CA,48.54,-58.55,26,5,cyjt
KNBK,NBK,,New Brunswick,NJ,US,40.5,-74.45,11,8,rutg
KHDN,HDN,72571,Hayden,CO,US,40.51,-107.25,2012,6,khdn
,,,821910,,,-1.43,-48.48,24,7,821910
MUCM,,78255,Camaguey,,CU,21.416,-77.85,122,6,mucm
KBNO,BNO,72683,Burns Muni,OR,US,43.58,-118.95,1264,6,kbno
,,,St. Louis Downtown,MO,US,38.62,-90.18,139,8,stl
KANW,ANW,,Ainsworth,NE,US,42.6,-99.9,777,8,aih
,,,lo1,,,43.62,-77.41,75,7,lo1
KHXD,HHH,,Hilton Head,SC,US,32.22,-80.7,6,7,722079
,MRR,74437,Merriman Profiler,NE,US,42.91,-101.69,991,8,p#7
VVTS,,48900,Ho Chi Minh/Tans,,VN,10.8166666667,106.666666667,19,6,489000
KJST,JST,,Johnstown,PA,US,40.33,-78.83,694,6,kjst
PABE,BET,70219,Bethel,AK,US,60.78,-161.8,41,5,pabe
KTUS,TUS,,Tucson Intl,AZ,US,32.12,-110.93,776,2,ktus
YPPH,PER,94610,Perth Intl,,AU,-31.9333333333,115.983333333,13,6,946100
,,,lrr,,,48.32,-113.35,1814,7,lrr
KDTX,DTX,72632,Detroit/WFO,MI,US,42.71,-83.47,327,8,dtx
ULLI,,26063,St. Petersburg,,RU,59.8,30.2666666667,4,6,260630
KPBI,PBI,72203,West Palm Beach,FL,US,26.68,-80.12,6,3,kpbi
KDQU,DQU,74752,DeQueen Profiler,AR,US,34.11,-94.29,195,8,p#v
KHTL,HTL,72638,Houghton Lake,MI,US,44.38,-84.68,351,7,726385
,,,000260,,,41.59,-95.34,375,7,000260
KAVL,AVL,72315,Asheville Rgnl,NC,US,35.44,-82.55,670,4,kavl
KMOR,MOR,,Morristown,TN,US,36.1833333333,-83.3666666667,400,8,mor
SBSP,,83780,Sao Paulo/Congon,,BR,-23.6166666667,-46.6333333333,803,6,837800
,,,a#b,,,49.2,-168.8,0,7,a#b
SBCO,,83967,Porto Alegre/Can,,BR,-29.95,-51.15,47,6,839670
UAAA,,36870,Almaty,AL,KZ,43.23,76.93,847,6,368700
MHYR,,78707,Yoro,,HN,15.1333333333,-87.1166666667,670,6,mhyr
LTBA,,17060,Istanbul/Ataturk,,TR,40.9666666667,28.8166666667,37,6,717060
PADL,DLG,70321,Dillingham,AK,US,59.05,-158.52,26,6,padl
CYXZ,YXZ,71738,Wawa,ON,CA,47.98,-84.78,287,6,cyxz
KAUW,AUW,72646,Wausau,WI,US,44.93,-89.62,362,6,kauw
PAKT,KTN,70395,Ketchikan Intl,AK,US,55.35,-131.7,28,6,pakt
PADU,DUT,70489,Dutch Harbor,AK,US,53.89,-166.53,4,6,padu
PHMK,MKK,91186,Kaunakakai Molokai,HI,US,21.15,-157.1,141,6,phmk
KLNS,LNS,,Lancaster,PA,US,40.12,-76.29,123,8,725116
,,,ath,,,42.3,-102.4,1188,7,ath
KASE,ASE,,Aspen,CO,US,39.22,-106.87,2354,4,kase
KVNY,VNY,,Van Nuys,CA,US,34.21,-118.49,245,6,kvny
KBJC,BJC,,Broomfield,CO,US,39.909,-105.117,1724,1,kbjc
PAEN,ENA,70259,Kenai Muni,AK,US,60.57,-151.25,27,6,paen
KRNT,RNT,,Renton Muni,WA,US,47.5,-122.22,21,7,krnt
KMHK,MHK,,Manhattan,KS,US,39.16,-96.67,317,4,kmhk
KBQK,BQK,,Brunswick,GA,US,31.15,-81.47,8,7,kbqk
,,,noa,,,68.07,-158.71,310,7,noa
,,,999180,,,-14.5,132.3,108,7,999180
,,,999560,,,47.67,67.73,381,7,999560
KLWM,LWM,,Lawrence,MA,US,42.73,-71.12,54,7,klwm
SCIC,,85629,Curico/Gen Freir,,CL,-34.9666666667,-71.2166666667,242,7,856290
,,,kan,,,66.08,-152.17,222,7,kan
,,,wrp,,,69.9,-128.97,15,7,wrp
KSTL,STL,72434,St. Louis Lambert,MO,US,38.76,-90.37,171,0,kstl
KMGW,MGW,,Morgantown,WV,US,39.64,-79.92,378,3,kmgw
KMOP,MOP,,Mount Pleasant Muni,MI,US,43.62,-84.74,230,7,kmop
,,,000736,,,34.89,-79.76,109,7,000736
KREJ,REJ,72661,Redig,SD,US,45.27,-103.54,922,8,bh1
PHNY,LNY,,Lanai,HI,US,20.78,-156.95,399,6,phny
KRSL,RSL,,Russell Muni,KS,US,38.87,-98.81,567,6,rsl
CYVP,YVP,71906,Kuujjuaq,QB,CA,58.11,-68.42,60,5,cyvp
MMLP,LAP,,La Paz Intl,,MX,24.07,-110.37,21,1,lap
SARE,,87155,Resistencia,,AR,-27.4333333333,-59.0333333333,52,6,871550
KWAL,WAL,72402,Wallops Island,VA,US,37.94,-75.47,14,5,wal
,,,000953,,,41.9,-125.8,0,7,000953
KFOE,FOE,,Topeka/Forbes,KS,US,38.96,-95.67,320,6,kfoe
,,,999250,,,-27.2,-109.4,51,7,999250
KHMM,HMM,,Hamilton,MT,US,46.25,-114.15,1265,9,c17
KLIT,LIT,,Little Rock/Adams,AR,US,34.73,-92.23,79,0,klit
KLMT,LMT,,Klamath Falls,OR,US,42.16,-121.73,1246,6,klmt
KLEB,LEB,72611,Lebanon Muni,NH,US,43.63,-72.3,171,6,kleb
,,,000231,,,46.77,-91.25,301,7,000231
,,,000704,,,32.35,-91.03,26,7,000704
,,,gvs,,,40.72,-85.93,278,7,gvs
MMBT,HUX,,Bahias De Huatulco,,MX,15.78,-96.27,143,6,mmbt
KEPH,EPH,,Ephrata,WA,US,47.33,-119.52,383,6,keph
KPGA,PGA,72371,Page Muni,AZ,US,36.94,-111.45,1307,3,kpga
,,,000947,,,32.8,-72.3,0,7,000947
KCVS,CVS,,Clovis/Cannon AFB,NM,US,34.39,-103.32,1309,4,cvs
SBPV,,82824,Porto Velho,,BR,-8.71666666667,-63.9,88,6,828240
KP59,P59,,Copper Harbor,MI,US,47.45,-87.9,190,7,kp59
KCMH,CMH,72428,Port Columbus Intl,OH,US,40.01,-82.88,247,4,kcmh
KBKE,BKE,,Baker,OR,US,44.84,-117.82,1024,6,kbke
OJAM,,40270,Amman/King Abdul,,JO,31.9666666667,35.9666666667,773,6,402700
,,,000758,,,48.49,-120.24,535,7,000758
CYFB,YFB,71909,Frobisher/Iqaluit,NU,CA,63.76,-68.54,34,5,cyfb
KCNK,CNK,72458,Concordia,KS,US,39.55,-97.65,447,7,724580
,,,ftr,,,62.5,-107.0,358,7,ftr
KNID,NID,74612,China Lake NAWS,CA,US,35.686,-117.692,696,4,nid
KHAT,HAT,72302,Cape Hatteras,NC,US,35.28,-75.55,3,8,khat
KEKN,EKN,72417,Elkins,WV,US,38.89,-79.85,603,4,kekn
MNMG,,78741,Managua/Augusto,,NI,12.15,-86.1666666667,59,6,mnmg
KSBP,SBP,,San Luis Obispo,CA,US,35.24,-120.64,59,6,ksbp
,,,999330,,,-18.8,47.5,1280,7,999330
,,,tok,,,62.97,-143.34,636,7,tok
KDMN,DMN,,Deming,NM,US,32.26,-107.7,1311,6,kdmn
,,,ink,,,63.39,-158.83,245,9,ink
KHLR,HLR,72257,Killeen,TX,US,31.139,-97.715,283,7,722576
,,,000206,,,62.88,-149.83,381,7,000206
KLRU,LRU,,Las Cruces,NM,US,32.28,-106.92,1358,6,722695
,,,b#2,,,32.3,-75.2,0,7,b#2
,,,028952,,,53.21,63.55,182,7,028952
,,,000749,,,30.73,-95.47,112,7,000749
PHNL,HNL,91182,Honolulu Intl,HI,US,21.35,-157.93,4,6,phnl
KTTN,TTN,,Trenton,NJ,US,40.28,-74.81,59,7,kttn
CYVQ,YVQ,71043,Norman Wells,NT,CA,65.28,-126.8,74,5,cyvq
,,,lhs,,,35.62,-119.69,80,7,lhs
KWRB,WRB,,Robins AFB,GA,US,32.64,-83.6,90,6,wrb
,,,999270,,,-8.1,-34.9,18,7,999270
,,,000728,,,41.32,-122.32,1085,7,000728
,,,b#q,,,40.3,-73.2,0,7,b#q
KART,ART,,Watertown Intl,NY,US,44.01,-76.02,100,6,kart
RJNN,,47635,Nagoya,,JP,35.25,136.93,17,6,476350
CYEG,YEG,71123,Edmonton Intl,AB,CA,53.33,-113.58,723,6,cyeg
,,,000360,,,32.02,-107.87,1293,7,000360
KATY,ATY,,Watertown Muni,SD,US,44.92,-97.16,532,6,katy
KACY,ACY,72407,Atlantic City Intl,NJ,US,39.46,-74.57,23,4,kacy
,,,col4,,,45.72,-120.21,122,7,col4
KJLN,JLN,,Joplin,MO,US,37.152,-94.495,299,6,kjln
,,,000952,,,41.75,-129.9,0,7,000952
KMKG,MKG,72636,Muskegon County,MI,US,43.18,-86.27,191,4,kmkg
EGLL,LHR,3772,London/Heathrow,,GB,51.48,-0.45,24,6,003772
CWHI,WHI,71249,Three Hills,AB,CA,51.71,-113.22,907,7,whi
,,,000228,,,47.08,-122.36,129,7,000228
CYXC,YXC,71880,Cranbrook,BC,CA,49.62,-115.78,939,6,cyxc
KIMS,IMS,,Madison,IN,US,38.83,-85.42,266,8,kmdn
CYFS,YFS,71946,Fort Simpson,NT,CA,61.8,-121.2,169,6,cyfs
KARA,ARA,,New Iberia,LA,US,30.03,-91.88,7,8,722314
HTKJ,,63791,Kilimanjaro,,TZ,-3.41666666667,37.0666666667,896,6,637910
TDPR,,78907,Roseau,,DM,15.3,-61.3833333333,72,7,tdpr
TNCC,,78988,Hato,,VI,12.2,-68.97,9,8,tncc
,,,000706,,,28.84,-82.33,20,7,000706
KRBL,RBL,72591,Red Bluff Muni,CA,US,40.15,-122.25,104,6,krbl
LKPR,PRG,11518,Prague/Ruzyne,,CZ,50.1,14.2666666667,365,6,115180
MRLM,,78767,Limon Intl,,CR,9.96666666667,-83.0333333333,2,6,mrlm
TNCB,,78990,Bonaire/Flamingo,,AN,12.1333333333,-68.2833333333,6,6,tncb
,,,000945,,,34.9,-70.8,0,7,000945
PADK,ADK,70454,Adak NAS,AK,US,51.89,-176.65,4,7,padk
PTYA,,91413,Yap Is,,FM,9.48,138.08,17,5,914130
KMCO,MCO,72205,Orlando Jetport,FL,US,28.43,-81.32,29,2,kmco
,,,744570,,,39.82,-84.03,245,7,744570
,,,g#2,,,30.3,-101.7,726,7,g#2
KILM,ILM,,Wilmington,NC,US,34.28,-77.92,9,0,kilm
,,,832290,,,-13.0,-38.52,51,7,832290
KWMC,WMC,72583,Winnemucca Muni,NV,US,40.91,-117.8,1310,3,kwmc
KGWO,GWO,,Greenwood,MS,US,33.51,-90.08,44,4,kgwo
,,,g#e,,,23.7,-88.7,0,7,g#e
PABR,BRW,70026,Barrow/Wiley Post-Will Rogers,AK,US,71.29,-156.77,7,5,pabr
,,,jack,,,45.64,-70.26,354,7,jack
KRDU,RDU,72306,Raleigh-Durham,NC,US,35.88,-78.78,130,2,krdu
,,,000958,,,34.6,-122.3,0,7,000958
,,,mtl,,,60.0,-140.0,569,7,mtl
KSPD,SPD,,Springfield,CO,US,37.28,-102.61,1335,7,8v7
KVRB,VRB,,Vero Beach,FL,US,27.65,-80.42,10,4,kvrb
UHMD,,25594,Buhta Providenja,HA,RU,64.43,-173.23,3,7,uhmd
,,,000240,,,46.42,-86.65,187,7,000240
MMLP,LAP,,La Paz Intl,,MX,24.07,-110.37,21,1,mmlp
,,,g#f,,,23.0,-85.0,0,7,g#f
,NLG,74445,Neligh Profiler,NE,US,42.21,-97.79,524,8,p#9
KMFD,MFD,,Mansfield,OH,US,40.83,-82.52,395,6,kmfd
,,,999190,,,38.1,-7.9,246,7,999190
UAFF,,38353,Frunze,,KZ,42.85,74.5166666667,760,7,383531
ENJA,,1001,Jan Mayen(Nor-Na,,NO,70.9166666667,-8.66666666667,9,7,001001
PAED,EDF,70272,Elmendorf AFB,AK,US,61.26,-149.81,59,6,paed
KMHR,MHR,,Sacramento/Mather AFB,CA,US,38.55,-121.3,29,8,724835
KBMI,BMI,,Bloomington,IL,US,40.48,-88.92,267,6,724397
,,,276120,,,55.75,37.57,187,7,276120
TDPD,,78905,Melville Hall Ar,,DM,15.55,-61.3,14,7,tdpd
KRDD,RDD,72592,Redding Muni,CA,US,40.51,-122.3,155,3,krdd
MHAM,,78700,Amapala/Los Pel,,HN,13.2666666667,-87.65,5,6,mham
KVQQ,VQQ,,Jacksonville/Cecil,FL,US,30.22,-81.88,25,7,722067
SAVC,,87860,Comodoro Rivadav,,AR,-45.7666666667,-67.4666666667,46,6,878600
KVSF,VSF,,Springfield St,VT,US,43.34,-72.52,175,7,vsf
KTRK,TRK,,Truckee-Tahoe,CA,US,39.32,-120.14,1798,6,ktrk
,,,000289,,,38.61,-123.21,475,7,000289
KGNC,GNC,,Seminole,TX,US,32.675,-102.653,1010,7,gnc
PAVD,VDZ,,Valdez,AK,US,61.13,-146.25,37,6,pavd
KMCW,MCW,,Mason City,IA,US,43.16,-93.33,369,6,kmcw
KSTJ,STJ,72449,St. Joseph,MO,US,39.77,-94.91,247,4,kstj
,,,999020,,,29.37,-114.47,600,7,999020
KTMB,TMB,,Miami/Kendall-Tamiami,FL,US,25.65,-80.43,2,7,ktmb
KMIA,MIA,,Miami Intl,FL,US,25.82,-80.28,3,0,kmia
,,,000743,,,36.68,-101.5,952,7,000743
,,,000264,,,36.22,-92.28,283,7,000264
,,,c19,,,49.0,-114.0,1558,7,c19
KP68,P68,,Eureka,NV,US,39.604,-116.005,1809,9,p68
,,,a#8,,,51.1,-147.4,0,7,a#8
,,,cnlk,,,53.99,-105.12,599,7,cnlk
KOHX,OHX,,Nashville/WFO,TN,US,36.25,-86.57,180,7,bna
ESSA,,2460,Stockholm/Arlanda,,SE,59.65,17.95,61,6,002460
PASY,SYA,70414,Shemya/Eareckson AFB,AK,US,52.72,174.12,31,5,pasy
KTOL,TOL,72536,Toledo Express,OH,US,41.61,-83.8,210,6,ktol
CYYL,YYL,71078,Lynn Lake,MB,CA,56.88,-101.08,357,6,cyyl
KEDW,EDW,72381,Edwards AFB,CA,US,34.91,-117.87,702,3,edw
,,,awr,,,67.75,-144.11,686,7,awr
,,,atl2,,,36.05,-74.25,0,7,atl2
,,,000238,,,34.37,-117.36,873,7,000238
KDCA,DCA,72405,Washington/National,VA,US,38.86,-77.03,18,1,kdca
KSAV,SAV,72207,Savannah Muni,GA,US,32.14,-81.2,14,4,ksav
MHTG,,78720,Tegucigalpa/Ton,,HN,14.0666666667,-87.2166666667,1004,6,mhtg
,,,g003,,,44.5,-122.7,244,7,g003
KBPT,BPT,72241,Beaumont/Port Arthur,TX,US,29.95,-94.02,5,6,kbpt
,,,gtp,,,43.9,-110.0,2704,7,gtp
KRME,RME,,Rome,NY,US,43.234,-75.407,154,7,rme
KESC,ESC,72648,Escanaba,MI,US,45.73,-87.08,187,7,kesc
PAFA,FAI,70261,Fairbanks Intl,AK,US,64.82,-147.87,132,5,pafa
,PLT,74533,Platteville Profiler,CO,US,40.18,-104.72,1524,8,p#d
,,,le2,,,42.47,-81.22,174,7,le2
,,,g#9,,,24.5,-94.4,0,7,g#9
KIPT,IPT,72514,Williamsport,PA,US,41.26,-76.92,164,6,kipt
TKPN,,78859,Charlestown/Newc,,AG,17.1833333333,-62.5666666667,17,7,tkpn
KABR,ABR,72659,Aberdeen Rgnl,SD,US,45.46,-98.43,397,3,kabr
KLOL,LOL,72580,Lovelock,NV,US,40.08,-118.55,1189,6,klol
WMKP,,48601,Penang/Bayan Lep,,MY,5.28333333333,100.266666667,4,6,486010
OSDI,,40080,Damascus (Civ/Mi,,SY,33.4166666667,36.5166666667,605,6,840080
KPDT,PDT,72688,Pendleton Muni,OR,US,45.69,-118.85,462,2,kpdt
KFTW,FTW,,Ft Worth/Meacham,TX,US,32.83,-97.35,214,2,kftw
KS06,S06,,Mullan,ID,US,47.48,-115.8,1011,8,s06
EPGD,,12150,Gdansk/Rebiechow,,PL,54.3666666667,18.4666666667,138,6,121500
KCEF,CEF,74491,Chicopee,MA,US,42.21,-72.53,75,7,kcef
,,,b#p,,,17.4,-152.5,0,7,b#p
KSMF,SMF,,Sacramento Intl,CA,US,38.7,-121.6,6,6,ksmf
MMCV,CVM,76491,Cuidad Victoria,,MX,23.72,-98.97,238,6,mmcv
KDET,DET,,Detroit City,MI,US,42.43,-83.02,190,3,kdet
KLEW,LEW,,Auburn-Lewiston,ME,US,44.05,-70.28,207,88,726184
,,,000949,,,48.1,-126.6,0,7,000949
,,,efl,,,60.0,-120.0,437,7,efl
MMMM,MLM,76665,Morelia,,MX,19.85,-101.03,1833,6,mmmm
,,,915011,,,7.4,147.1,0,7,915011
CYQH,YQH,71953,Watson Lake,YK,CA,60.12,-128.82,690,6,cyqh
,,,nwa,,,40.5,-126.98,0,7,nwa
PHJH,JHM,,Lahaina/West Maui,HI,US,21.02,-156.63,78,6,phjh
KSPS,SPS,72351,Wichita Falls/Sheppard AFB,TX,US,33.98,-98.48,308,4,ksps
KJXN,JXN,,Jackson,MI,US,42.27,-84.47,305,6,kjxn
KINW,INW,72374,Winslow,AZ,US,35.03,-110.73,1490,4,kinw
KRDG,RDG,,Reading,PA,US,40.38,-75.97,109,6,krdg
CYYB,YYB,71731,North Bay,ON,CA,46.38,-79.42,371,6,cyyb
LLJR,,40290,Jerusalem/Atarot,,IL,31.8666666667,35.2166666667,759,6,402900
MMTJ,TIJ,,Tijuana Intl,,MX,32.55,-116.97,152,6,mmtj
KTEB,TEB,,Teterboro,NJ,US,40.86,-74.05,7,6,kteb
,,,000209,,,60.95,-149.14,600,7,000209
KNEW,NEW,,New Orleans/Lakefront,LA,US,30.04,-90.03,3,1,knew
KBFD,BFD,,Bradford Rgnl,PA,US,41.8,-78.64,647,6,kbfd
,,,woo,,,38.88,-78.52,251,7,woo
,,,999530,,,9.01,7.26,342,7,999530
KCSV,CSV,,Crossville,TN,US,35.96,-85.08,570,6,kcsv
PABI,BIG,70267,Ft. Greely,AK,US,63.97,-145.7,386,6,pabi
KILN,ILN,72426,Wilmington,OH,US,39.43,-83.8,322,3,iln
,,,000750,,,45.02,-102.02,787,7,000750
KOGS,OGS,,Ogdensburg,NY,US,44.69,-75.4,91,7,ogs
KBDR,BDR,72504,Bridgeport,CT,US,41.18,-73.13,7,3,kbdr
KPKB,PKB,72427,Parkersburg,WV,US,39.36,-81.43,262,6,kpkb
KSFO,SFO,72494,San Francisco Intl,CA,US,37.62,-122.36,3,0,ksfo
TKPK,,78858,Golden Rock,,KN,17.3,-62.68,48,6,tkpk
,,70027,Barrow ARM-NSA,AK,US,71.32,-156.62,3,8,bfx
,,,915018,,,5.8,157.3,0,7,915018
,,,000716,,,39.13,-100.87,931,7,000716
PAHO,HOM,70341,Homer Muni,AK,US,59.64,-151.5,28,6,hom
KGSO,GSO,72317,Greensboro-High Point,NC,US,36.01,-79.95,275,3,kgso
KCNM,CNM,,Carlsbad,NM,US,32.34,-104.27,985,6,kcnm
CWKM,WKM,71046,Komakuk Beach,YK,CA,69.58,-140.18,19,7,yaj
KBLU,BLU,,Blue Canyon,CA,US,39.29,-120.7,1609,7,blu
,,,c02,,,47.61,-103.26,762,7,c02
KMWH,MWH,,Moses Lake,WA,US,47.21,-119.32,362,6,kmwh
MYGF,,78062,Freeport Intl,,BS,26.55,-78.7,2,3,mygf
KORD,ORD,72530,Chicago/O'Hare,IL,US,41.98,-87.9,200,0,kord
KMCE,MCE,,Merced Muni,CA,US,37.29,-120.52,47,6,kmce
LTAC,,17128,Ankara/Esenboga,,TR,40.12,32.98,949,6,171280
KHYR,HYR,,Hayward,WI,US,46.025,-91.444,370,6,hyr
CYLH,,71697,Lansdowne House,ON,CA,52.2,-87.9333333333,254,7,cylh
KBUR,BUR,72288,Burbank-Glendale-Pasadena,CA,US,34.2,-118.36,217,6,kbur
KMSV,MSV,,Monticello,NY,US,41.7,-74.8,428,8,725145
MPBO,,,Bocas Del Toro,,PA,9.35,-82.25,3,7,mpbo
KBHM,BHM,72228,Birmingham Intl,AL,US,33.56,-86.75,197,4,kbhm
,,,gnb,,,44.92,-80.42,176,7,gnb
KOMK,OMK,72789,Omak,WA,US,48.42,-119.53,382,7,4om
KMDW,MDW,72534,Chicago/Midway,IL,US,41.79,-87.75,188,1,kmdw
KCBE,CBE,,Cumberland,MD,US,39.615,-78.761,236,7,cbe
KHPX,HPX,,Hopkinton,KY,US,36.74,-87.29,186,8,xrw
PALU,LUR,70104,Cape Lisburne,AK,US,68.89,-166.14,3,6,palu
,,,nw1,,,44.3,-140.8,0,7,nw1
,,,chrl,,,53.63,-106.2,582,7,chrl
KRST,RST,72644,Rochester,MN,US,43.904,-92.492,403,6,krst
KLYH,LYH,72410,Lynchburg,VA,US,37.34,-79.2,295,6,klyh
CYVR,YVR,71892,Vancouver Intl,BC,CA,49.19,-123.18,2,6,cyvr
,,,g#7,,,24.4,-97.4,0,7,g#7
KCHA,CHA,72324,Chattanooga,TN,US,35.04,-85.2,210,4,kcha
HEMM,,62306,Mersa Matruh,,EG,31.3166666667,27.2166666667,30,6,623060
,,,000951,,,45.3,-125.6,0,7,000951
,,,000717,,,37.01,-91.36,302,7,000717
MMRX,REX,,Reynosa Intl,,MX,26.02,-98.23,39,6,mmrx
,,,000709,,,33.45,-88.82,84,7,000709
,,,5ag,,,58.0,-142.0,0,7,5ag
KONT,ONT,,Ontario Intl,CA,US,34.06,-117.6,274,1,kont
,,,000756,,,48.65,-118.73,795,7,000756
VIDD,,42182,Delhi/Safdarjung,,IN,28.5833333333,77.2166666667,216,7,421820
KPOE,POE,72239,Fort Polk AAF,LA,US,31.05,-93.18,101,4,722390
KISP,ISP,,Islip,NY,US,40.8,-73.1,43,4,kisp
KBPI,BPI,72671,Big Piney,WY,US,42.58,-110.1,2117,6,726710
LEVC,,8284,Valencia,,ES,39.5,-0.466666666667,62,6,082840
KCID,CID,72545,Cedar Rapids Muni,IA,US,41.89,-91.7,264,4,kcid
,,,999070,,,-28.0,21.5,975,7,999070
,,,999360,,,64.6,-147.0,167,7,999360
CYPL,YPL,71845,Pickle Lake,ON,CA,51.48,-90.2,373,5,cypl
KIWD,IWD,,Ironwood,MI,US,46.54,-90.13,375,7,kiwd
,,,000349,,,37.74,-118.49,1219,7,000349
KSAT,SAT,72253,San Antonio Intl,TX,US,29.54,-98.47,243,0,ksat
,,,000943,,,36.3,-74.6,0,7,000943
KCWA,CWA,,Mosinee,WI,US,44.79,-89.67,389,6,kcwa
,,,000762,,,40.34,-123.07,1453,7,000762
MGFL,,78615,Flores/Santa El,,GT,16.9166666667,-89.8833333333,115,6,mgfl
UNNN,,29634,Novosibirsk/Tolm,,RU,55.0833333333,82.9833333333,177,7,296340
,,,000761,,,40.94,-123.63,183,7,000761
KTBW,TBW,72210,Tampa Bay Area/WFO,FL,US,27.7,-82.4,12,8,tbw
KPYM,PYM,,Plymouth,MA,US,41.91,-70.73,43,7,kpym
,LMN,74647,Lamont Profiler,OK,US,36.69,-97.48,306,8,p#o
,,,999100,,,-28.23,134.98,226,7,999100
KSJN,SJN,,St. Johns,AZ,US,34.52,-109.38,1745,6,sjn
,,,fps7,,,33.49,-77.59,0,7,fps7
CYGQ,YGQ,71834,Geraldton,ON,CA,49.79,-86.93,351,6,cygq
,MBW,74431,Medicine Bow Profiler,WY,US,41.9,-106.19,1997,8,p#5
KSCH,SCH,,Schenectady,NY,US,42.86,-73.93,115,7,ksch
KSRQ,SRQ,,Sarasota/Bradenton Intl,FL,US,27.4,-82.55,18,6,ksrq
KRLD,RLD,,Richland,WA,US,46.32,-119.27,113,7,psc
,SLA,74449,Slater Profiler,IA,US,41.9,-93.7,315,8,p#a
,,,b#m,,,23.4,-162.3,0,7,b#m
KTPA,TPA,72211,Tampa Intl Airport,FL,US,27.97,-82.53,11,3,ktpa
,,,s#c,,,28.0,-85.0,0,7,s#c
SVMI,,80415,Caracas/S. Boliv,,VE,10.5833333333,-67.0,48,6,svmi
CYPA,YPA,71869,Prince Albert,SK,CA,53.23,-105.67,428,6,cypa
FACT,,68816,Capetown/Df Mala,,ZA,-33.9666666667,18.6,42,6,688160
,,,ls3,,,47.32,-89.87,183,7,ls3
KGDP,GDP,72262,Guadalupe Mtns Np,TX,US,31.83,-104.8,1692,7,gdp
,,,b#5,,,25.9,-89.7,0,7,b#5
,,,5af,,,56.0,-137.0,0,7,5af
KCLE,CLE,72524,Cleveland/Hopkins,OH,US,41.43,-81.87,233,3,kcle
,,,lby,,,48.39,-115.55,579,7,lby
,,,000296,,,33.5,-106.18,1371,7,000296
KEAX,EAX,,Pleasant Hill/WFO,MO,US,38.8166666667,-94.2666666667,303,8,eax
CYMD,YMD,71072,Mould Bay,NT,CA,76.23,-119.32,12,7,cymd
KJAX,JAX,72206,Jacksonville Intl,FL,US,30.4941,-81.6879,10,0,kjax
PAGA,GAL,70222,Galena Airport,AK,US,64.74,-156.94,46,6,paga
HTMO,,63818,Mombo,,TZ,-4.86666666667,38.2666666667,511,7,638180
,,,ngx,,,31.4,-114.49,0,7,ngx
CYPQ,YPQ,,Peterborough,ON,CA,44.23,-78.37,191,6,cypq
KONP,ONP,72695,Newport Muni,OR,US,44.58,-124.05,48,6,onp
KGON,GON,,Groton-New London,CT,US,41.33,-72.05,3,7,kgon
,,,a#5,,,54.0,-143.0,0,7,a#5
MZBZ,,78583,Belize City,,BZ,17.53,-88.3,5,5,mzbz
SBBU,,83722,Bauru,,BR,-22.3166666667,-49.0666666667,590,6,837220
CYQM,YQM,71705,Moncton,NB,CA,46.12,-64.68,71,6,717050
KCYS,CYS,72564,Cheyenne/Warren,WY,US,41.16,-104.82,1868,3,kcys
,,,915021,,,6.2,160.7,0,7,915021
KNSI,NSI,72291,San Nicolas Island,CA,US,33.26,-119.45,154,7,knsi
KNHK,NHK,72404,Patuxent River N,MD,US,38.29,-76.4,12,6,nhk
,BLR,74357,Blue River Profiler,WI,US,43.22,-90.53,226,8,p#4
KPRB,PRB,,Paso Robles,CA,US,35.68,-120.63,245,6,kprb
EGPK,PIK,3135,Prestwick,,GB,55.5,-4.56666666667,20,6,003135
KUKI,UKI,,Ukiah,CA,US,39.14,-123.2,187,6,kuki
,,,000236,,,38.69,-80.65,255,7,000236
MHPL,,78711,Puerto Lempira,,HN,15.2666666667,-83.7833333333,13,6,mhpl
CYQT,YQT,71749,Thunder Bay,ON,CA,48.38,-89.32,199,0,cyqt
KAST,AST,72791,Astoria,OR,US,46.16,-123.88,3,4,kast
KRIW,RIW,72672,Riverton,WY,US,43.05,-108.45,1697,2,kriw
KGDV,GDV,,Glendive,MT,US,47.14,-104.8,749,6,gdv
,,,000270,,,39.08,-120.94,691,7,000270
MMMZ,MZT,,Mazatlan/Gen Buelna,,MX,23.17,-106.27,10,5,mmmz
,WLC,74466,Wolcott Profiler,IN,US,40.81,-87.05,212,8,p#b
UHMR,,25677,Ugolnaya Bay/Be,,RU,63.05,179.32,85,7,u#6
KOLM,OLM,72792,Olympia,WA,US,46.98,-122.9,58,6,kolm
KDBQ,DBQ,72547,Dubuque Muni,IA,US,42.41,-90.7,326,4,kdbq
LEBL,,8181,Barcelona Airpor,,ES,41.2666666667,2.06666666667,6,6,081810
KLWT,LWT,,Lewiston,MT,US,47.05,-109.45,1270,6,klwt
,,,000759,,,47.54,-116.14,707,7,000759
,,,915003,,,18.8,145.7,0,7,915003
MUMO,,,Moa,,CU,20.65,-74.92,5,7,mumo
KCOD,COD,72670,Cody Muni,WY,US,44.53,-109.02,1553,3,kcod
PAHN,HNS,,Haines,AK,US,59.25,-135.52,5,6,pahn
,,48820,Hanoi Wmo Site,,VN,21.0166666667,105.8,6,6,488200
,WNC,74556,Winchester Profiler,IL,US,39.66,-90.48,170,8,p#j
KELP,ELP,72270,El Paso Intl,TX,US,31.8,-106.4,1197,2,kelp
,,,000359,,,31.49,-110.3,1482,7,000359
,,,g#8,,,25.9,-95.3,0,7,g#8
MMMD,MID,76644,Merida Intl,,MX,20.98,-89.65,10,5,mmmd
KMSS,MSS,,Massena,NY,US,44.94,-74.85,66,6,kmss
KFAT,FAT,72389,Fresno,CA,US,36.78,-119.72,104,2,kfat
KPFN,PFN,,Panama City,FL,US,30.2,-85.6833333333,12,8,kpfn
KGFL,GFL,,Glens Falls,NY,US,43.36,-73.62,103,6,kgfl
KRUM,RUM,72618,Rumford,ME,US,44.54,-70.53,207,8,krum
KLAX,LAX,72295,Los Angeles Intl,CA,US,33.94,-118.4,46,0,klax
,,,lw1,,,34.9,-98.1,397,7,lw1
PAOT,OTZ,70133,Kotzebue/Ralph Wien,AK,US,66.87,-162.64,3,5,paot
CYKF,YKF,71368,Waterloo Well,ON,CA,43.47,-80.39,317,6,cykf
MMCU,CUU,76225,Chihuahua Intl,,MX,28.7,-105.97,1372,1,mmcu
CWLT,WLT,71082,Alert,NU,CA,82.5,-62.34,63,5,cwlt
KPMD,PMD,72382,Palmdale,CA,US,34.63,-118.08,780,6,kpmd
MMTP,TAP,,Tapachula,,MX,14.78,-92.38,29,3,mmtp
,,,c11,,,33.6,-99.3,404,7,c11
,GDA,74530,Granada Profiler,CO,US,37.77,-102.18,1155,8,p#c
,,,lh2,,,44.28,-82.42,177,7,lh2
KCRP,CRP,72251,Corpus Christi Intl,TX,US,27.77,-97.5,14,2,kcrp
,,,000293,,,39.99,-122.06,76,7,000293
,,,qrz,,,65.41,-164.66,76,7,qrz
KHOB,HOB,,Hobbs,NM,US,32.69,-103.2,1115,6,khob
KAMA,AMA,72363,Amarillo Intl,TX,US,35.23,-101.7,1093,3,kama
KFLG,FLG,72375,Flagstaff,AZ,US,35.14,-111.67,2134,2,kflg
,,,915004,,,8.1,134.7,0,7,915004
PADQ,ADQ,70350,Kodiak,AK,US,57.76,-152.5,34,5,padq
,,,000262,,,30.9,-102.85,917,7,000262
,,,bdp,,,69.5,-156.5,96,7,bdp
,,,837430,,,-22.9,-43.17,26,7,837430
MHNJ,,78701,Isla De Guanaja,,HN,16.45,-85.9,15,7,mhnj
KMSN,MSN,72641,Madison,WI,US,43.14,-89.33,261,4,kmsn
MHCA,,78714,Catacamas,,HN,14.9,-85.7833333333,442,6,mhca
KOQT,OQT,,Oak Ridge,TN,US,35.96,-84.29,334,7,o#k
KVPS,VPS,72221,Eglin AFB,FL,US,30.48,-86.53,26,6,vps
KGNR,GNR,72619,Greenville Muni,ME,US,45.462,-69.595,427,7,kgnr
CYYE,YYE,71945,Fort Nelson,BC,CA,58.84,-122.6,382,5,cyye
,,,dsc,,,35.34,-116.88,961,7,dsc
KHTH,HTH,,Hawthorne,NV,US,38.55,-118.63,1285,8,khth
K47B,47B,,Eastport,ME,US,44.92,-67.0,23,8,kepo
KSNA,SNA,,Santa Ana,CA,US,33.68,-117.87,16,6,ksna
,,,999370,,,34.8,-120.6,112,7,999370
KLRD,LRD,72252,Laredo Intl,TX,US,27.54,-99.47,155,3,klrd
KSYR,SYR,72519,Syracuse,NY,US,43.12,-76.12,127,3,ksyr
,,,000345,,,42.8,-109.81,2163,7,000345
KAXN,AXN,,Alexandria,MN,US,45.87,-95.41,433,3,kaxn
,,,uhaz,,,64.73,177.5,5,7,uhaz
,,,Fort Peck,MT,US,48.31,-105.09,634,7,fpk
,,,s#6,,,25.0,-115.0,0,7,s#6
KALI,ALI,,Alice Intl,TX,US,27.74,-98.04,53,6,kali
KCIC,CIC,72497,Chico,CA,US,39.79,-121.85,73,7,kcic
YMHB,,94975,Hobart/Tasmania,,AU,-42.8166666667,147.516666667,27,6,949750
KBLI,BLI,,Bellingham Intl,WA,US,48.79,-122.54,50,6,kbli
ZBAA,,54511,Beijing/Peking,,CN,40.0666666667,116.583333333,30,6,545110
KACV,ACV,,Arcata/Eureka,CA,US,40.99,-124.1,67,6,kacv
KRNO,RNO,72488,Reno/Cannon Intl,NV,US,39.51,-119.78,1342,2,krno
,,,lus,,,42.76,-104.45,1578,7,lus
,,,can,,,42.05,-73.2,426,7,can
KWJF,WJF,,Lancaster,CA,US,34.73,-118.22,715,6,kwjf
KRAD,RAD,,Warroad,MN,US,48.94,-95.34,327,7,krad
KMRY,MRY,,Monterey Peninsula,CA,US,36.59,-121.84,66,2,kmry
CYDA,YDA,71966,Dawson,YK,CA,64.05,-139.13,369,6,cyda
KPRC,PRC,,Prescott,AZ,US,34.65,-112.42,1524,3,kprc
KEAU,EAU,,Eau Claire,WI,US,44.88,-91.48,276,4,keau
KMGM,MGM,72226,Montgomery,AL,US,32.3,-86.4,63,4,kmgm
KCRE,CRE,,North Myrtle Beach,SC,US,33.81,-78.72,10,6,kcre
,,,000739,,,40.63,-79.11,428,7,000739
KMPV,MPV,,Montpelier,VT,US,44.21,-72.57,343,4,kmpv
,,,le1,,,41.68,-82.4,174,7,le1
KAHN,AHN,72311,Athens Muni,GA,US,33.96,-83.32,244,4,ahn
K9V9,9V9,72653,Chamberlain,SD,US,43.8,-99.32,519,7,k9v9
KLBB,LBB,72267,Lubbock Intl,TX,US,33.6658,-101.823,993,0,klbb
PASC,SCC,,Deadhorse,AK,US,70.2,-148.47,15,6,pasc
,,,atl4,,,38.6,-73.75,0,7,atl4
,,,046047,,,32.4,-119.5,0,7,046047
SBCY,,83362,Cuiaba/Marechal,,BR,-15.65,-56.1166666667,182,6,833620
KSAN,SAN,72290,San Diego/Lindbergh,CA,US,32.73,-117.17,12,2,ksan
KOPF,OPF,,Miami/Opa Locka,FL,US,25.91,-80.28,16,1,kopf
KGNV,GNV,,Gainesville,FL,US,29.68,-82.27,45,4,kgnv
NZAA,AKL,93119,Auckland Intl,,NZ,-37.0166666667,174.8,6,6,931190
KDAG,DAG,,Daggett,CA,US,34.88,-116.78,587,6,kdag
KGGW,GGW,72768,Glasgow Intl,MT,US,48.21,-106.63,694,2,kggw
KDRA,DRA,72387,Mercury,NV,US,36.62,-116.02,1006,5,kdra
KCON,CON,72605,Concord Muni,NH,US,43.21,-71.5,103,6,kcon
,,,000208,,,60.49,-149.79,648,7,000208
KPDX,PDX,72698,Portland Intl,OR,US,45.61,-122.6,7,2,kpdx
MTPP,,78439,Port-Au-Prince,,HT,18.55,-72.35,37,6,mtpp
KEED,EED,72380,Needles,CA,US,34.78,-114.62,302,6,keed
FZAA,,64210,Kinshasa/N'Djili,,CD,-4.38,15.43,312,6,642100
KBNA,BNA,72327,Nashville Metro,TN,US,36.12,-86.68,210,2,kbna
KJHW,JHW,,Jamestown,NY,US,42.16,-79.25,525,6,kjhw
KRUT,RUT,,Rutland,VT,US,43.54,-72.95,240,7,rut
RJSM,,47580,Misawa,,JP,40.7,141.366666667,36,7,475800
KAVP,AVP,72513,Wilkes-Barre/Scranton,PA,US,41.33,-75.73,291,6,kavp
MDSD,,78485,Caucedo/De Las Amer,,DO,18.43,-69.67,18,6,mdsd
KGWX,GWX,,Columbus AFB,MS,US,33.9,-88.33,169,8,cbn
TNCM,,78866,Prinses Juliana,,VI,18.05,-63.12,4,8,tncm
KEYW,EYW,72201,Key West Intl,FL,US,24.55,-81.75,5,2,keyw
K56N,56N,,Sandy Hook CGS,NJ,US,40.42,-73.98,1,8,atlh
,,,b#3,,,29.3,-77.4,0,7,b#3
KGLH,GLH,,Greenville,MS,US,33.48,-90.98,45,6,kglh
KPIH,PIH,72578,Pocatello Muni,ID,US,42.93,-112.6,1359,3,pih
CYWG,YWG,71852,Winnipeg,MB,CA,49.93,-97.23,239,0,cywg
KRWL,RWL,,Rawlins,WY,US,41.8,-107.2,2077,6,krwl
,,,999060,,,44.22,-0.67,91,7,999060
,,,c36,,,36.6,-101.6,996,7,c36
KGRF,GRF,74207,Fort Lewis/Gray,WA,US,47.09,-122.58,92,6,grf
KJMS,JMS,,Jamestown,ND,US,46.93,-98.68,455,6,kjms
,RWD,74433,McCook Profiler,NE,US,40.09,-100.65,800,8,p#6
KMIE,MIE,,Muncie,IN,US,40.242,-85.396,285,7,mie
PHKO,KOA,,Kailua Kona,HI,US,19.65,-156.0,27,6,phko
CYWA,YWA,71625,Petawawa,ON,CA,45.96,-77.31,130,6,cywa
PGSN,,91232,Saipan/Isley,,FM,15.12,145.73,65,6,912320
,,,000273,,,37.58,-120.27,307,7,000273
KOKX,OKX,72501,Brookhaven/Upton,NY,US,40.8666666667,-72.8666666667,26,8,okx
,,,nw8,,,44.6,-127.5,0,7,nw8
TBPB,,78954,Barbados,Grantley Adams Intl,BB,13.07,-59.48,52,8,tbpb
,,,000942,,,37.3,-70.1,0,7,000942
KMOB,MOB,72223,Mobile/Bates Field,AL,US,30.68,-88.25,63,3,kmob
PATO,POR,,Portage Glacier,AK,US,60.79,-148.83,31,7,por
,,,000956,,,36.4,-125.4,0,7,000956
KFWA,FWA,72533,Fort Wayne,IN,US,41.01,-85.2,248,3,kfwa
CYTL,YTL,71848,Big Trout Lake,ON,CA,53.83,-89.87,224,6,cytl
KFKL,FKL,,Franklin,PA,US,41.39,-79.87,469,6,kfkl
,,,b#l,,,57.0,-177.7,0,7,b#l
,,,044027,,,44.3,-67.3,0,7,044027
,,,g#c,,,21.4,-93.1,0,7,g#c
MRLB,,78774,Liberia/Tomas G,,CR,10.6,-85.55,82,6,mrlb
KMRF,MRF,72264,Marfa Muni,TX,US,30.38,-104.02,1481,6,mrf
PAVW,VWS,70275,Valdez,AK,US,61.13,-146.35,11,7,pavw
KEUG,EUG,72693,Eugene,OR,US,44.12,-123.22,114,1,keug
KLEX,LEX,72422,Lexington,KY,US,38.05,-84.6,300,4,klex
KLVS,LVS,,Las Vegas,NM,US,35.66,-105.15,2091,3,klvs
,,,Franklin,AL,US,32.54,-85.79,157,8,max
KGZH,GZH,,Evergreen,AL,US,31.42,-87.04,78,7,kgzh
KIDA,IDA,,Idaho Falls/Fang,ID,US,43.53,-112.07,1453,6,kida
KLSE,LSE,72643,La Crosse Muni,WI,US,43.88,-91.25,199,6,klse
KBRL,BRL,,Burlington,IA,US,40.79,-91.12,211,6,kbrl
RJAA,,47686,New Tokyo Intl,,JP,35.77,140.38,44,6,476860
,,,000356,,,39.21,-82.23,232,7,000356
KFDR,FDR,,Frederick Muni,OK,US,34.35,-98.98,386,5,fdr
TRPM,,,Blackburne/Plymo,,AG,16.75,-62.1666666667,12,7,trpm
CWZB,WZB,71197,Port Aux Basques,NF,CA,47.58,-59.17,40,7,cwzb
KVAD,VAD,74781,Valdosta/Moody AFB,GA,US,30.97,-83.2,71,6,vad
,,,000258,,,42.41,-86.28,203,7,000258
KALO,ALO,72548,Waterloo Muni,IA,US,42.55,-92.4,264,4,kalo
MUMZ,,78256,Manzanillo,,CU,20.2833333333,-77.1,60,7,mumz
SBFZ,,82398,Fortaleza/Pinto,,BR,-3.76666666667,-38.5166666667,25,6,823980
KIPL,IPL,,Imperial,CA,US,32.84,-115.57,-17,6,kipl
MMCZ,CZM,76648,Cozumel,,MX,20.53,-86.93,5,6,mmcz
KANJ,ANJ,72734,Sault Ste Marie,MI,US,46.485,-84.366,218,0,anj
CYOC,YOC,,Old Crow Airport,YK,CA,67.57,-139.84,251,6,cyoc
KHFD,HFD,,Hartford,CT,US,41.73,-72.65,4,4,khfd
CYYT,YYT,71801,St. Johns/Torbay,NF,CA,47.62,-52.75,140,5,cyyt
,,,000738,,,40.82,-79.53,245,7,000738
,,,b#4,,,28.9,-78.5,0,7,b#4
,,,999170,,,52.7,-8.9,14,7,999170
,,,g#4,,,30.5,-99.1,504,7,g#4
CYQG,YQG,71538,Windsor,ON,CA,42.28,-82.97,190,6,cyqg
KTLH,TLH,72214,Tallahassee Rgnl,FL,US,30.4,-84.35,19,3,ktlh
MPDA,,78793,David/Enrique M,,PA,8.4,-82.4333333333,27,7,mpda
PAGY,SGY,70362,Skagway,AK,US,59.48,-135.32,5,6,pagy
,,,South Bakersfield,CA,US,35.24,-119.03,151,6,bfl
TIST,,78543,C. Amalie/Cyril E.,,VI,18.33,-64.97,7,6,tist
SBPN,,83063,Porto Nacional A,,BR,-10.7166666667,-48.3833333333,265,7,830630
KUIL,UIL,72797,Quillayute State,WA,US,47.96,-124.55,54,2,uil
SEGU,,84203,Guayaquil/Simon,,EC,-2.13333333333,-79.8666666667,9,6,842030
PASV,SVW,70235,Sparrevohn,AK,US,61.11,-155.59,484,7,pasv
LTCC,,17280,Diyarbakir,,TR,37.8666666667,40.2,677,6,172800
KMIV,MIV,,Millville Muni,NJ,US,39.37,-75.07,23,6,kmiv
KHQM,HQM,,Hoquiam,WA,US,46.98,-123.97,7,4,khqm
KMFR,MFR,72597,Medford,OR,US,42.38,-122.87,396,0,kmfr
DNMM,,65201,Lagos/Ikeja,,NG,6.56666666667,3.31666666667,38,6,652010
KALS,ALS,72462,Alamosa Muni,CO,US,37.46,-105.87,2299,6,kals
MRPV,,,Tobias Bolano,,CR,9.95,-84.15,994,6,mrpv
MMMY,MTY,,Monterrey/Gen Maria,,MX,25.78,-100.1,387,6,mty
,,,wxk,,,69.58,-120.75,27,7,wxk
KGYX,GYX,74389,Gray,ME,US,43.9,-70.25,125,8,gyx
KMOT,MOT,,Minot Intl,ND,US,48.28,-101.28,519,6,kmot
KSUN,SUN,,Hailey,ID,US,43.504,-114.296,1620,6,ksun
MMZH,ZIH,,Ixtapa-Zihuatanejo,,MX,17.6,-101.47,6,6,mmzh
KDLS,DLS,,The Dalles,OR,US,45.62,-121.15,71,3,kdls
PAXK,PXK,,Paxson,AK,US,63.04,-145.5,809,7,paxk
,,,c18,,,47.0,-112.5,1483,7,c18
,,,000367,,,17.98,-67.08,17,7,000367
,,,000237,,,34.34,-117.4,923,7,000237
EGVN,,3649,Brize Norton RAF,,GB,51.75,-1.58,88,7,003649
KFRI,FRI,72455,Junction City,KS,US,39.055,-96.765,325,6,fri
KOQU,OQU,,N. Kingston,RI,US,41.61,-71.42,6,7,koqu
,,,c28,,,34.5,-82.5,244,7,c28
,,,000277,,,38.49,-121.22,33,7,000277
MGSJ,,78647,San Jose,,GT,13.9166666667,-90.8333333333,9,6,mgsj
PATK,TKA,70251,Talkeetna,AK,US,62.3,-150.1,109,6,patk
KPRX,PRX,,Paris,TX,US,33.64,-95.45,167,7,prx
MKJS,,78388,Sangster/Montego Bay,,JM,18.5,-77.92,1,6,mkjs
PAKN,AKN,70326,King Salmon,AK,US,58.68,-156.65,17,5,pakn
KAGC,AGC,,Pittsburgh/Allegheny Co,PA,US,40.35,-79.93,389,6,kagc
KGPT,GPT,,Gulfport-Biloxi Rgnl,MS,US,30.4,-89.07,14,6,kgpt
PAIL,ILI,70340,Iliamna,AK,US,59.76,-154.92,49,6,pail
GBYD,,61701,Banjul/Yundum Intl,,GM,13.35,-16.8,36,6,617010
SBTE,,82579,Teresina Airport,,BR,-5.03333333333,-42.8166666667,69,6,825790
KSRR,SRR,,Ruidoso,NM,US,33.463,-105.535,2076,7,srr
KABY,ABY,72216,Albany Muni,GA,US,31.54,-84.18,58,6,kaby
KYKN,YKN,,Yankton,SD,US,42.92,-97.38,398,7,kykn
KABQ,ABQ,72365,Albuquerque,NM,US,35.05,-106.62,1618,0,kabq
KSJT,SJT,72263,San Angelo,TX,US,31.38,-100.5,576,5,ksjt
,,,000274,,,36.83,-119.33,367,7,000274
KRWF,RWF,,Redwood Falls,MN,US,44.55,-95.08,311,6,krwf
,,,000712,,,35.62,-87.84,194,7,000712
,WDL,74341,Wood Lake Profiler,MN,US,44.67,-95.45,319,8,p#3
,AZC,74630,Aztec Profiler,NM,US,36.84,-107.91,1902,8,p#m
KPSP,PSP,,Palm Springs,CA,US,33.84,-116.5,135,3,kpsp
KHON,HON,72654,Huron Rgnl,SD,US,44.39,-98.22,390,6,khon
KDUG,DUG,,Douglas,AZ,US,31.45,-109.6,1265,6,kdug
,,,c21,,,49.0,-104.0,661,7,c21
KFNT,FNT,72637,Flint,MI,US,42.98,-83.73,233,4,kfnt
KFMY,FMY,,Ft. Myers/Page,FL,US,26.58,-81.87,4,6,kfmy
PAOM,OME,70200,Nome,AK,US,64.5,-165.44,11,5,paom
GATB,,61223,Tombouctou/Timbu,,ML,16.7166666667,-3.0,264,7,612230
KCPR,CPR,72569,Casper,WY,US,42.93,-106.47,1621,6,kcpr
KBID,BID,,Block Island,RI,US,41.18,-71.58,33,7,bid
PATL,TLJ,,Tatalina,AK,US,62.91,-155.99,294,6,patl
,,,afa,,,48.0,-65.0,0,7,afa
KPHL,PHL,72408,Philadelphia Intl,PA,US,39.89,-75.25,18,3,kphl
,,,appl,,,42.99,-70.62,0,7,appl
PAWD,SWD,70277,Seward,AK,US,60.12,-149.45,23,7,702770
KRDM,RDM,,Redmond,OR,US,44.28,-121.15,938,6,krdm
PAYA,YAK,70361,Yakutat,AK,US,59.52,-139.67,11,5,paya
KCMI,CMI,,Champaign/Urbana,IL,US,40.04,-88.28,228,6,kcmi
KFXE,FXE,,Fort Lauderdale Executive,FL,US,26.2,-80.17,6,7,kfxe
,,,000256,,,47.2,-55.1,0,7,000256
,,,915009,,,7.4,134.9,0,7,915009
,,,ftsr,,,34.38,-104.23,1231,7,ftsr
MMVR,VER,76692,Veracruz/Gen Heriberto Vara,,MX,19.15,-96.18,16,7,mmvr
KHLN,HLN,72772,Helena Rgnl,MT,US,46.61,-112.0,1182,4,khln
OIZB,,40829,Zabol,,IR,31.1,61.55,489,7,408290
KCGI,CGI,,Cape Girardeau,MO,US,37.23,-89.58,102,6,kcgi
,,,cwfn,,,57.35,-107.13,495,7,cwfn
LFPO,ORY,7149,Paris/Orly,,FR,48.7166666667,2.38333333333,96,6,007149
,,,827530,,,-7.88,-40.08,460,7,827530
MUCU,,78264,Santiago De Cuba,Oriente,CU,19.966,-75.85,76,6,mucu
KFMH,FMH,,Falmouth,MA,US,41.659,-70.522,40,7,kfmh
CYUX,,71081,Hall Beach,NU,CA,68.79,-81.25,8,5,cyux
,,,b#a,,,40.5,-69.4,0,7,b#a
,,,cai,,,37.3,-88.9,116,7,cai
KPNC,PNC,,Ponca City,OK,US,36.73,-97.1,308,6,kpnc
PAGS,GST,70367,Gustavus,AK,US,58.42,-135.73,9,6,pags
,,,000746,,,28.29,-81.44,25,7,000746
KTCL,TCL,,Tuscaloosa Muni,AL,US,33.22,-87.61,49,6,ktcl
,,,201,,,90.0,0.0,0,7,201
MROC,,78762,Juan Santamaria,,CR,10.0,-84.2166666667,920,6,mroc
,,,bir,,,65.59,-144.36,274,7,bir
CYQX,YQX,71803,Gander Intl,NF,CA,48.96,-54.57,151,6,cyqx
CYXY,YXY,71964,Whitehorse,YK,CA,60.73,-135.07,703,5,cyxy
KGRB,GRB,72645,Green Bay,WI,US,44.48,-88.13,208,3,kgrb
KFCS,FCS,72468,Fort Carson,CO,US,38.69,-104.77,1789,6,fcs
KACQ,ACQ,,Waseca Muni,MN,US,44.1,-93.5,348,8,wsc
KUMN,UMN,72349,Monett,MO,US,36.89,-93.9,437,8,umn
,,,000713,,,36.95,-85.26,255,7,000713
KEVV,EVV,72432,Evansville,IN,US,38.05,-87.53,117,4,kevv
,,,000352,,,34.83,-118.95,1511,7,000352
,,,lo2,,,43.4,-79.45,75,7,lo2
CYAW,YAW,71601,Halifax,NS,CA,44.64,-63.5,51,6,cyaw
PAMD,MDO,70343,Middleton Island,AK,US,59.44,-146.33,14,7,pamd
KERI,ERI,72526,Erie Intl,PA,US,42.08,-80.18,222,4,keri
,,,466920,,,25.03,121.52,9,7,466920
KYNG,YNG,72525,Youngstown Muni,OH,US,41.27,-80.67,360,6,kyng
KMAF,MAF,72265,Midland Rgnl,TX,US,31.933,-102.2,874,5,kmaf
CYQA,YQA,71630,Muskoka,ON,CA,44.98,-79.3,282,6,cyqa
MTCH,,78409,Cap-Haitien,,HT,19.75,-72.1833333333,2,5,mtch
MMMZ,MZT,,Mazatlan/Gen Buelna,,MX,23.17,-106.27,10,5,mzt
,,,000735,,,36.33,-77.64,44,7,000735
,,,c04,,,34.59,-94.3,380,7,c04
KMLU,MLU,,Monroe Regnl,LA,US,32.51,-92.04,29,6,kmlu
SEQU,,84071,Quito/Mariscal S,,EC,-0.15,-78.4666666667,2812,6,840710
KFSD,FSD,72651,Sioux Falls,SD,US,43.59,-96.74,436,2,kfsd
KBGR,BGR,72607,Bangor Intl,ME,US,44.81,-68.83,57,3,kbgr
KMYL,MYL,,Mccall,ID,US,44.89,-116.1,1533,6,myl
CYEV,YEV,71957,Inuvik,NT,CA,68.3,-133.5,68,5,cyev
,JTN,74735,Jayton Profiler,TX,US,33.02,-100.98,707,8,p#t
TFFJ,,78894,Gustavia/St.Bart,,GP,17.9,-62.85,290,7,tffj
KSSI,SSI,,Brunswick,GA,US,31.15,-81.38,6,6,kssi
,,,000278,,,39.13,-120.8,939,7,000278
,,,000731,,,41.39,-123.49,280,7,000731
KHLG,HLG,,Wheeling,WV,US,40.17,-80.65,372,6,khlg
PABT,BTT,70174,Bettles Field,AK,US,66.92,-151.52,195,6,pabt
KMCN,MCN,72217,Macon,GA,US,32.71,-83.65,109,3,kmcn
,,,sef,,,37.7,-123.0,25,7,sef
,,,000266,,,26.42,-81.44,11,7,000266
